{
"type": "FeatureCollection",
"name": "kecamatan",
"crs": { "type": "name", "properties": { "name": "urn:ogc:def:crs:OGC:1.3:CRS84" } },
"features": [
{ "type": "Feature", "properties": { "GID_0": "IDN", "NAME_0": "Indonesia", "GID_1": "IDN.33_1", "NAME_1": "Yogyakarta", "GID_2": "IDN.33.3_1", "NAME_2": "Kota Yogyakarta", "GID_3": "IDN.33.3.3_1", "NAME_3": "Gondokusuman", "GID_4": "IDN.33.3.3.1_1", "NAME_4": "Baciro", "VARNAME_4": null, "TYPE_4": "Kelurahan", "ENGTYPE_4": "Urban Community", "CC_4": "3471060001", "K_Pddk": 11935, "Skor": 4 }, "geometry": { "type": "MultiPolygon", "coordinates": [ [ [ [ 110.378227233886776, -7.789799690246582 ], [ 110.378860473632926, -7.789750099182072 ], [ 110.379631042480582, -7.789680004119873 ], [ 110.380020141601676, -7.789639949798584 ], [ 110.380508422851619, -7.789599895477238 ], [ 110.380630493164006, -7.78959321975708 ], [ 110.380943298339901, -7.789539813995304 ], [ 110.381599426269531, -7.789480209350529 ], [ 110.382553100585938, -7.789430141448975 ], [ 110.382873535156364, -7.789400100707951 ], [ 110.383537292480469, -7.78941011428833 ], [ 110.383651733398551, -7.789400100707951 ], [ 110.383987426757869, -7.789370059967041 ], [ 110.384170532226619, -7.789350032806396 ], [ 110.384567260742244, -7.789309978485051 ], [ 110.386016845703125, -7.789169788360539 ], [ 110.386589050292969, -7.789150238037053 ], [ 110.386703491211051, -7.789150238037053 ], [ 110.387237548828182, -7.789090156555119 ], [ 110.387443542480582, -7.789050102233887 ], [ 110.387847900390739, -7.789000034332219 ], [ 110.388183593750057, -7.788980007171574 ], [ 110.388839721679688, -7.78892993927002 ], [ 110.389289855957088, -7.788869857788086 ], [ 110.390823364257869, -7.788790225982666 ], [ 110.391197204589901, -7.788760185241586 ], [ 110.392242431640739, -7.788690090179387 ], [ 110.392639160156193, -7.788630008697453 ], [ 110.392837524414006, -7.788599967956543 ], [ 110.393409729003849, -7.788589954376164 ], [ 110.393630981445312, -7.788569927215519 ], [ 110.393783569335881, -7.788559913635254 ], [ 110.394172668456974, -7.78851413726801 ], [ 110.394439697265682, -7.788501739501953 ], [ 110.394561767578125, -7.788484573364258 ], [ 110.394638061523494, -7.788484573364258 ], [ 110.394821166992244, -7.788473129272461 ], [ 110.397117614746151, -7.788289546966553 ], [ 110.397109985351619, -7.788643836975098 ], [ 110.397201538086051, -7.788817405700684 ], [ 110.39727783203125, -7.788926124572754 ], [ 110.397361755371207, -7.789097309112549 ], [ 110.397415161132756, -7.789498329162598 ], [ 110.397392272949332, -7.789765357971191 ], [ 110.39737701416027, -7.789847373962402 ], [ 110.397285461425781, -7.790107250213509 ], [ 110.397140502929744, -7.790266513824406 ], [ 110.397056579589844, -7.790338039398137 ], [ 110.396728515625057, -7.790533065795842 ], [ 110.396331787109375, -7.790732383727971 ], [ 110.396202087402401, -7.790783882141056 ], [ 110.396163940429744, -7.790364265441895 ], [ 110.396018981933707, -7.790417671203556 ], [ 110.395881652831974, -7.790439128875732 ], [ 110.395866394043082, -7.790587425231934 ], [ 110.395614624023494, -7.790616989135685 ], [ 110.395431518554744, -7.79059362411499 ], [ 110.395286560058707, -7.790593147277775 ], [ 110.395332336425781, -7.790760040283146 ], [ 110.39532470703125, -7.79091215133667 ], [ 110.395286560058707, -7.79148340225214 ], [ 110.394859313964901, -7.792205333709603 ], [ 110.394828796386776, -7.792572498321533 ], [ 110.394134521484489, -7.792583942413273 ], [ 110.393287658691463, -7.792582988738957 ], [ 110.393089294433594, -7.792595863342228 ], [ 110.393089294433594, -7.792871475219727 ], [ 110.392509460449219, -7.792842388153019 ], [ 110.392059326171818, -7.792863845825195 ], [ 110.392028808593864, -7.79313945770258 ], [ 110.391975402832088, -7.793580055236816 ], [ 110.391410827636776, -7.79352951049799 ], [ 110.390930175781193, -7.793475151062012 ], [ 110.390960693359375, -7.793084621429387 ], [ 110.390640258789119, -7.793060779571476 ], [ 110.390403747558594, -7.793033599853516 ], [ 110.390312194824332, -7.793137073516846 ], [ 110.389663696289119, -7.793001651763916 ], [ 110.389358520507926, -7.793143272399846 ], [ 110.389030456542969, -7.793196678161621 ], [ 110.388732910156307, -7.79324197769165 ], [ 110.38858795166027, -7.793341636657715 ], [ 110.388313293457031, -7.793252944946289 ], [ 110.388145446777401, -7.793102264404297 ], [ 110.387161254882812, -7.793203353881779 ], [ 110.387016296386776, -7.793641567230225 ], [ 110.386833190918026, -7.794184207916146 ], [ 110.386711120605582, -7.794159889221191 ], [ 110.385688781738338, -7.794050216674748 ], [ 110.385154724121207, -7.793950080871525 ], [ 110.384773254394645, -7.793910026550179 ], [ 110.384483337402344, -7.793859958648682 ], [ 110.384338378906307, -7.793826580047494 ], [ 110.384223937988395, -7.794222831726074 ], [ 110.384254455566349, -7.794338226318359 ], [ 110.38401031494152, -7.794281482696533 ], [ 110.3839111328125, -7.794666290283146 ], [ 110.38336181640625, -7.794600009918213 ], [ 110.383224487304744, -7.794932842254639 ], [ 110.383110046386662, -7.795278072357121 ], [ 110.383003234863338, -7.79562330245966 ], [ 110.382904052734318, -7.795861244201603 ], [ 110.382865905761832, -7.796040058135929 ], [ 110.382774353027344, -7.796182632446289 ], [ 110.382759094238281, -7.79639720916748 ], [ 110.382659912109432, -7.796909332275391 ], [ 110.382514953613395, -7.797202110290527 ], [ 110.382377624511719, -7.797285556793213 ], [ 110.382141113281193, -7.797358512878418 ], [ 110.381881713867244, -7.797399997711125 ], [ 110.381874084472713, -7.797326564788818 ], [ 110.382225036621151, -7.79714918136591 ], [ 110.382347106933537, -7.79684591293335 ], [ 110.382453918457088, -7.796469211578312 ], [ 110.382240295410213, -7.796092033386174 ], [ 110.381645202636719, -7.795745849609261 ], [ 110.381401062011719, -7.795578002929688 ], [ 110.381156921386832, -7.795703411102238 ], [ 110.380981445312614, -7.795692443847656 ], [ 110.380790710449332, -7.795786380767765 ], [ 110.380706787109432, -7.795786380767765 ], [ 110.380599975586051, -7.7961106300354 ], [ 110.380432128906193, -7.795974254608154 ], [ 110.380401611328239, -7.796199798583928 ], [ 110.380477905273438, -7.796330451965275 ], [ 110.380416870117301, -7.796675682067757 ], [ 110.380531311035213, -7.796874523162785 ], [ 110.38059234619152, -7.797387599945012 ], [ 110.380531311035213, -7.797929763793945 ], [ 110.3804931640625, -7.798009872436523 ], [ 110.380455017089844, -7.798210144042912 ], [ 110.380294799804688, -7.798180103302002 ], [ 110.379760742187557, -7.798099994659424 ], [ 110.379661560058537, -7.798089981079102 ], [ 110.379470825195256, -7.798079967498779 ], [ 110.379219055175838, -7.798039913177433 ], [ 110.379005432128963, -7.798029899597168 ], [ 110.378601074218807, -7.797999858856144 ], [ 110.378219604492244, -7.797969818115234 ], [ 110.377960205078068, -7.797939777374211 ], [ 110.377815246582031, -7.797729969024601 ], [ 110.377708435058707, -7.797560214996338 ], [ 110.377670288085994, -7.797279834747258 ], [ 110.37772369384777, -7.796780109405461 ], [ 110.377769470214787, -7.795939922332764 ], [ 110.377838134765682, -7.794980049133244 ], [ 110.377853393554744, -7.794849872589111 ], [ 110.377883911132869, -7.794280052185002 ], [ 110.377899169921989, -7.793879985809326 ], [ 110.377914428711051, -7.793630123138428 ], [ 110.377929687500114, -7.792550086975098 ], [ 110.377922058105582, -7.79229021072382 ], [ 110.377914428711051, -7.791820049285832 ], [ 110.377944946289006, -7.791220188140812 ], [ 110.377975463867188, -7.790900230407715 ], [ 110.378021240234375, -7.79056978225708 ], [ 110.37808990478527, -7.790299892425537 ], [ 110.378158569335938, -7.789999961852914 ], [ 110.378227233886776, -7.789799690246582 ] ] ] ] } },
{ "type": "Feature", "properties": { "GID_0": "IDN", "NAME_0": "Indonesia", "GID_1": "IDN.33_1", "NAME_1": "Yogyakarta", "GID_2": "IDN.33.3_1", "NAME_2": "Kota Yogyakarta", "GID_3": "IDN.33.3.3_1", "NAME_3": "Gondokusuman", "GID_4": "IDN.33.3.3.2_1", "NAME_4": "Demangan", "VARNAME_4": null, "TYPE_4": "Kelurahan", "ENGTYPE_4": "Urban Community", "CC_4": "3471060002", "K_Pddk": 11552, "Skor": 2 }, "geometry": { "type": "MultiPolygon", "coordinates": [ [ [ [ 110.380630493164006, -7.78959321975708 ], [ 110.380805969238224, -7.789148807525635 ], [ 110.380828857421875, -7.788949012756348 ], [ 110.380752563476619, -7.788654327392521 ], [ 110.380714416503963, -7.788444995880127 ], [ 110.380661010742188, -7.788139820098877 ], [ 110.380653381347656, -7.787789821624756 ], [ 110.380729675293026, -7.787740230560246 ], [ 110.380874633789062, -7.787640094757023 ], [ 110.3812255859375, -7.787580013275033 ], [ 110.381324768066463, -7.78754997253418 ], [ 110.381332397461051, -7.7874498367309 ], [ 110.381324768066463, -7.78734016418457 ], [ 110.381568908691349, -7.787270069122201 ], [ 110.381706237793026, -7.78725004196167 ], [ 110.381874084472713, -7.787220001220703 ], [ 110.381965637206974, -7.787209987640381 ], [ 110.382164001464844, -7.786570072174072 ], [ 110.3822021484375, -7.786290168762207 ], [ 110.382354736328125, -7.786180019378662 ], [ 110.383026123046932, -7.786129951476994 ], [ 110.383125305175781, -7.786149978637638 ], [ 110.383659362793082, -7.786149978637638 ], [ 110.384101867675781, -7.786170005798283 ], [ 110.384208679199332, -7.786159992218018 ], [ 110.385643005371094, -7.786200046539307 ], [ 110.386840820312557, -7.786170005798283 ], [ 110.387023925781307, -7.786109924316349 ], [ 110.387275695800895, -7.786019802093449 ], [ 110.3873291015625, -7.785940170288029 ], [ 110.387802124023494, -7.78551006317133 ], [ 110.388023376464957, -7.785220146179142 ], [ 110.387977600097713, -7.785056591033936 ], [ 110.387954711914119, -7.784871101379338 ], [ 110.387901306152344, -7.784744262695256 ], [ 110.387931823730469, -7.784497261047306 ], [ 110.387908935546875, -7.784297466278076 ], [ 110.387924194335938, -7.784082889556885 ], [ 110.387901306152344, -7.783977031707707 ], [ 110.387939453125, -7.783749580383244 ], [ 110.387924194335938, -7.783610343932992 ], [ 110.387771606445369, -7.783593654632568 ], [ 110.387779235839901, -7.783361434936467 ], [ 110.387809753418026, -7.783087730407715 ], [ 110.387825012207145, -7.782750129699707 ], [ 110.387832641601676, -7.782639980316162 ], [ 110.387939453125, -7.781929969787541 ], [ 110.388137817382869, -7.780803680419922 ], [ 110.388252258300724, -7.780257225036564 ], [ 110.388473510742188, -7.780288219451904 ], [ 110.388504028320312, -7.780221939086857 ], [ 110.388694763183594, -7.780170917510986 ], [ 110.388824462890568, -7.780160903930664 ], [ 110.389045715332031, -7.7801833152771 ], [ 110.389160156250114, -7.780135154724121 ], [ 110.389350891113395, -7.780169963836613 ], [ 110.38946533203125, -7.780165672302189 ], [ 110.389602661132812, -7.780211448669434 ], [ 110.389701843261776, -7.780184268951416 ], [ 110.389923095703239, -7.780190467834416 ], [ 110.390052795410213, -7.780232906341496 ], [ 110.390541076660099, -7.78039646148676 ], [ 110.390602111816406, -7.780518054962158 ], [ 110.390625, -7.780692577362061 ], [ 110.390625, -7.780770778656006 ], [ 110.390594482421875, -7.78090238571167 ], [ 110.390640258789119, -7.781099796295109 ], [ 110.390792846679688, -7.781121730804443 ], [ 110.390754699707031, -7.781224250793457 ], [ 110.390762329101562, -7.781341075897217 ], [ 110.390769958496094, -7.781465530395451 ], [ 110.390914916992131, -7.781480312347412 ], [ 110.390914916992131, -7.781582355499268 ], [ 110.391052246093807, -7.78162670135498 ], [ 110.391250610351676, -7.781670570373535 ], [ 110.391250610351676, -7.78178882598877 ], [ 110.391334533691406, -7.781853675842285 ], [ 110.391357421875, -7.781977653503361 ], [ 110.391349792480469, -7.782109260559025 ], [ 110.391311645507756, -7.782335758209172 ], [ 110.391365051269531, -7.782598972320557 ], [ 110.391433715820369, -7.782730579376221 ], [ 110.391510009765625, -7.782731056213379 ], [ 110.391525268554688, -7.783093452453613 ], [ 110.391777038574276, -7.783239364624023 ], [ 110.392524719238338, -7.785426139831543 ], [ 110.392585754394645, -7.785653591155949 ], [ 110.392753601074276, -7.786296367645264 ], [ 110.394104003906307, -7.786440849304142 ], [ 110.39450836181652, -7.786516666412354 ], [ 110.394943237304688, -7.787028789520207 ], [ 110.395156860351562, -7.787363052368164 ], [ 110.395111083984318, -7.78752946853632 ], [ 110.395042419433651, -7.787827014923039 ], [ 110.394935607910099, -7.788101196289006 ], [ 110.394882202148551, -7.788276195526066 ], [ 110.394821166992244, -7.788473129272461 ], [ 110.394638061523494, -7.788484573364258 ], [ 110.394561767578125, -7.788484573364258 ], [ 110.394439697265682, -7.788501739501953 ], [ 110.394172668456974, -7.78851413726801 ], [ 110.393783569335881, -7.788559913635254 ], [ 110.393630981445312, -7.788569927215519 ], [ 110.393409729003849, -7.788589954376164 ], [ 110.392837524414006, -7.788599967956543 ], [ 110.392639160156193, -7.788630008697453 ], [ 110.392242431640739, -7.788690090179387 ], [ 110.391197204589901, -7.788760185241586 ], [ 110.390823364257869, -7.788790225982666 ], [ 110.389289855957088, -7.788869857788086 ], [ 110.388839721679688, -7.78892993927002 ], [ 110.388183593750057, -7.788980007171574 ], [ 110.387847900390739, -7.789000034332219 ], [ 110.387443542480582, -7.789050102233887 ], [ 110.387237548828182, -7.789090156555119 ], [ 110.386703491211051, -7.789150238037053 ], [ 110.386589050292969, -7.789150238037053 ], [ 110.386016845703125, -7.789169788360539 ], [ 110.384567260742244, -7.789309978485051 ], [ 110.384170532226619, -7.789350032806396 ], [ 110.383987426757869, -7.789370059967041 ], [ 110.383651733398551, -7.789400100707951 ], [ 110.383537292480469, -7.78941011428833 ], [ 110.382873535156364, -7.789400100707951 ], [ 110.382553100585938, -7.789430141448975 ], [ 110.381599426269531, -7.789480209350529 ], [ 110.380943298339901, -7.789539813995304 ], [ 110.380630493164006, -7.78959321975708 ] ] ] ] } },
{ "type": "Feature", "properties": { "GID_0": "IDN", "NAME_0": "Indonesia", "GID_1": "IDN.33_1", "NAME_1": "Yogyakarta", "GID_2": "IDN.33.3_1", "NAME_2": "Kota Yogyakarta", "GID_3": "IDN.33.3.3_1", "NAME_3": "Gondokusuman", "GID_4": "IDN.33.3.3.3_1", "NAME_4": "Klitren", "VARNAME_4": null, "TYPE_4": "Kelurahan", "ENGTYPE_4": "Urban Community", "CC_4": "3471060003", "K_Pddk": 13930, "Skor": 5 }, "geometry": { "type": "MultiPolygon", "coordinates": [ [ [ [ 110.380630493164006, -7.78959321975708 ], [ 110.380508422851619, -7.789599895477238 ], [ 110.380020141601676, -7.789639949798584 ], [ 110.379631042480582, -7.789680004119873 ], [ 110.378860473632926, -7.789750099182072 ], [ 110.378227233886776, -7.789799690246582 ], [ 110.378440856933651, -7.788290023803711 ], [ 110.378471374511832, -7.788125514984074 ], [ 110.378517150878849, -7.787930011749211 ], [ 110.378562927246094, -7.787710189819336 ], [ 110.378608703613338, -7.787330150604191 ], [ 110.378677368164176, -7.78705978393549 ], [ 110.378768920898438, -7.786349773406982 ], [ 110.378852844238395, -7.785779953002816 ], [ 110.37896728515625, -7.785029888153019 ], [ 110.378982543945369, -7.784949779510441 ], [ 110.379013061523494, -7.784739971160832 ], [ 110.379173278808651, -7.783919811248779 ], [ 110.379219055175838, -7.783589839935303 ], [ 110.379264831543082, -7.783058166503849 ], [ 110.379272460937614, -7.782985687255859 ], [ 110.379592895507869, -7.782985687255859 ], [ 110.381095886230526, -7.783035755157471 ], [ 110.381187438964787, -7.783035755157471 ], [ 110.381416320800781, -7.783025741577148 ], [ 110.381256103515625, -7.782895565032902 ], [ 110.381187438964787, -7.782815456390381 ], [ 110.381057739257812, -7.782375335693303 ], [ 110.380950927734489, -7.782004356384277 ], [ 110.380882263183594, -7.781705379486084 ], [ 110.380836486816406, -7.781615734100285 ], [ 110.380714416503963, -7.781562805175781 ], [ 110.380844116210938, -7.781155586242619 ], [ 110.38095855712902, -7.780775547027588 ], [ 110.380912780761776, -7.780229568481388 ], [ 110.380905151367244, -7.78010177612299 ], [ 110.381149291992301, -7.78009557723999 ], [ 110.381278991699276, -7.78012752532959 ], [ 110.381347656250114, -7.7801575660705 ], [ 110.381431579589844, -7.780152320861816 ], [ 110.381561279296989, -7.780183792114258 ], [ 110.381607055664062, -7.780367851257211 ], [ 110.381843566894588, -7.780442714691162 ], [ 110.381965637206974, -7.780169010162354 ], [ 110.382095336914176, -7.78007793426508 ], [ 110.382698059082145, -7.780261516570988 ], [ 110.383583068847713, -7.780304431915226 ], [ 110.383666992187443, -7.780287742614746 ], [ 110.383834838867301, -7.78025484085083 ], [ 110.38401031494152, -7.78029632568348 ], [ 110.384101867675781, -7.780304908752385 ], [ 110.384307861328125, -7.780313491821232 ], [ 110.384574890136832, -7.780330657958984 ], [ 110.385040283203125, -7.780314445495605 ], [ 110.38525390625, -7.780314922332764 ], [ 110.385780334472599, -7.780406951904297 ], [ 110.385871887207088, -7.780216217041016 ], [ 110.386291503906364, -7.780316352844181 ], [ 110.386650085449276, -7.780225753784123 ], [ 110.387161254882812, -7.780226707458496 ], [ 110.387535095214844, -7.780135631561279 ], [ 110.38785552978527, -7.780161380767765 ], [ 110.388252258300724, -7.780257225036564 ], [ 110.388137817382869, -7.780803680419922 ], [ 110.387939453125, -7.781929969787541 ], [ 110.387832641601676, -7.782639980316162 ], [ 110.387825012207145, -7.782750129699707 ], [ 110.387809753418026, -7.783087730407715 ], [ 110.387779235839901, -7.783361434936467 ], [ 110.387771606445369, -7.783593654632568 ], [ 110.387924194335938, -7.783610343932992 ], [ 110.387939453125, -7.783749580383244 ], [ 110.387901306152344, -7.783977031707707 ], [ 110.387924194335938, -7.784082889556885 ], [ 110.387908935546875, -7.784297466278076 ], [ 110.387931823730469, -7.784497261047306 ], [ 110.387901306152344, -7.784744262695256 ], [ 110.387954711914119, -7.784871101379338 ], [ 110.387977600097713, -7.785056591033936 ], [ 110.388023376464957, -7.785220146179142 ], [ 110.387802124023494, -7.78551006317133 ], [ 110.3873291015625, -7.785940170288029 ], [ 110.387275695800895, -7.786019802093449 ], [ 110.387023925781307, -7.786109924316349 ], [ 110.386840820312557, -7.786170005798283 ], [ 110.385643005371094, -7.786200046539307 ], [ 110.384208679199332, -7.786159992218018 ], [ 110.384101867675781, -7.786170005798283 ], [ 110.383659362793082, -7.786149978637638 ], [ 110.383125305175781, -7.786149978637638 ], [ 110.383026123046932, -7.786129951476994 ], [ 110.382354736328125, -7.786180019378662 ], [ 110.3822021484375, -7.786290168762207 ], [ 110.382164001464844, -7.786570072174072 ], [ 110.381965637206974, -7.787209987640381 ], [ 110.381874084472713, -7.787220001220703 ], [ 110.381706237793026, -7.78725004196167 ], [ 110.381568908691349, -7.787270069122201 ], [ 110.381324768066463, -7.78734016418457 ], [ 110.381332397461051, -7.7874498367309 ], [ 110.381324768066463, -7.78754997253418 ], [ 110.3812255859375, -7.787580013275033 ], [ 110.380874633789062, -7.787640094757023 ], [ 110.380729675293026, -7.787740230560246 ], [ 110.380653381347656, -7.787789821624756 ], [ 110.380661010742188, -7.788139820098877 ], [ 110.380714416503963, -7.788444995880127 ], [ 110.380752563476619, -7.788654327392521 ], [ 110.380828857421875, -7.788949012756348 ], [ 110.380805969238224, -7.789148807525635 ], [ 110.380630493164006, -7.78959321975708 ] ] ] ] } },
{ "type": "Feature", "properties": { "GID_0": "IDN", "NAME_0": "Indonesia", "GID_1": "IDN.33_1", "NAME_1": "Yogyakarta", "GID_2": "IDN.33.3_1", "NAME_2": "Kota Yogyakarta", "GID_3": "IDN.33.3.3_1", "NAME_3": "Gondokusuman", "GID_4": "IDN.33.3.3.4_1", "NAME_4": "Kotabaru", "VARNAME_4": null, "TYPE_4": "Kelurahan", "ENGTYPE_4": "Urban Community", "CC_4": "3471060004", "K_Pddk": 4358, "Skor": 1 }, "geometry": { "type": "MultiPolygon", "coordinates": [ [ [ [ 110.36893463134777, -7.789950847625732 ], [ 110.368972778320426, -7.789803981781006 ], [ 110.368995666503849, -7.789730548858586 ], [ 110.3690185546875, -7.789639949798584 ], [ 110.369026184082031, -7.78951978683466 ], [ 110.36883544921875, -7.789259910583496 ], [ 110.368553161621207, -7.788757324218693 ], [ 110.368354797363338, -7.78809738159174 ], [ 110.368217468261662, -7.787647247314453 ], [ 110.368141174316463, -7.787291049957219 ], [ 110.368118286132869, -7.787079811096135 ], [ 110.368141174316463, -7.78698015213007 ], [ 110.368492126464901, -7.786540031433049 ], [ 110.368698120117244, -7.786213874816838 ], [ 110.368812561035156, -7.786046504974308 ], [ 110.368965148925895, -7.785774230957031 ], [ 110.369262695312557, -7.78551006317133 ], [ 110.369972229003906, -7.784999847412109 ], [ 110.370521545410099, -7.784560203552189 ], [ 110.370773315429688, -7.784309864044133 ], [ 110.370941162109375, -7.784080028533879 ], [ 110.371063232421989, -7.783850193023625 ], [ 110.371032714843864, -7.783360004424935 ], [ 110.370994567871151, -7.782961368560791 ], [ 110.371131896972656, -7.782987594604435 ], [ 110.371215820312557, -7.782985210418701 ], [ 110.371322631835938, -7.782992362976074 ], [ 110.371398925781307, -7.782997131347656 ], [ 110.371566772460994, -7.782992839813232 ], [ 110.372077941894531, -7.782991409301701 ], [ 110.372406005859489, -7.782987117767277 ], [ 110.372940063476676, -7.782985210418701 ], [ 110.374732971191406, -7.782992839813232 ], [ 110.374877929687614, -7.782997608184814 ], [ 110.374961853027344, -7.78300952911377 ], [ 110.375114440917969, -7.782999038696232 ], [ 110.375503540039062, -7.783012866973877 ], [ 110.37583160400402, -7.783015727996769 ], [ 110.376113891601562, -7.78299951553339 ], [ 110.376388549804801, -7.783007144927922 ], [ 110.376716613769588, -7.783012390136719 ], [ 110.377655029296932, -7.783020973205566 ], [ 110.378486633300895, -7.783036231994629 ], [ 110.379272460937614, -7.782985687255859 ], [ 110.379264831543082, -7.783058166503849 ], [ 110.379219055175838, -7.783589839935303 ], [ 110.379173278808651, -7.783919811248779 ], [ 110.379013061523494, -7.784739971160832 ], [ 110.378982543945369, -7.784949779510441 ], [ 110.37896728515625, -7.785029888153019 ], [ 110.378852844238395, -7.785779953002816 ], [ 110.378768920898438, -7.786349773406982 ], [ 110.378677368164176, -7.78705978393549 ], [ 110.378608703613338, -7.787330150604191 ], [ 110.378562927246094, -7.787710189819336 ], [ 110.378517150878849, -7.787930011749211 ], [ 110.378471374511832, -7.788125514984074 ], [ 110.37808990478527, -7.788199901580697 ], [ 110.377281188964901, -7.788440227508545 ], [ 110.377189636230412, -7.788489818572998 ], [ 110.376327514648494, -7.788670063018742 ], [ 110.376091003417969, -7.78872013092041 ], [ 110.375442504882926, -7.788819789886361 ], [ 110.375, -7.788869857788086 ], [ 110.374755859375, -7.788893222808838 ], [ 110.374664306640739, -7.788906097412109 ], [ 110.374557495117188, -7.788909435272217 ], [ 110.374420166015682, -7.788929462432861 ], [ 110.374275207519645, -7.788943290710392 ], [ 110.37412261962902, -7.788961410522461 ], [ 110.374000549316406, -7.788970470428467 ], [ 110.373878479003963, -7.789034366607552 ], [ 110.373321533203239, -7.78907918930048 ], [ 110.372795104980412, -7.789131164550724 ], [ 110.372039794921818, -7.789285659789982 ], [ 110.37152099609375, -7.789470672607422 ], [ 110.370971679687557, -7.789619445800724 ], [ 110.370285034179801, -7.78973484039301 ], [ 110.370109558105582, -7.789843082427979 ], [ 110.369735717773551, -7.789897441863957 ], [ 110.369636535644588, -7.789900779724064 ], [ 110.369506835937614, -7.789914131164551 ], [ 110.369415283203125, -7.789906024932804 ], [ 110.369316101074332, -7.789897918701115 ], [ 110.369239807128906, -7.789889335632267 ], [ 110.369087219238338, -7.789913654327336 ], [ 110.36893463134777, -7.789950847625732 ] ] ] ] } },
{ "type": "Feature", "properties": { "GID_0": "IDN", "NAME_0": "Indonesia", "GID_1": "IDN.33_1", "NAME_1": "Yogyakarta", "GID_2": "IDN.33.3_1", "NAME_2": "Kota Yogyakarta", "GID_3": "IDN.33.3.3_1", "NAME_3": "Gondokusuman", "GID_4": "IDN.33.3.3.5_1", "NAME_4": "Terban", "VARNAME_4": null, "TYPE_4": "Kelurahan", "ENGTYPE_4": "Urban Community", "CC_4": "3471060005", "K_Pddk": 11763, "Skor": 3 }, "geometry": { "type": "MultiPolygon", "coordinates": [ [ [ [ 110.379272460937614, -7.782985687255859 ], [ 110.378486633300895, -7.783036231994629 ], [ 110.377655029296932, -7.783020973205566 ], [ 110.376716613769588, -7.783012390136719 ], [ 110.376388549804801, -7.783007144927922 ], [ 110.376113891601562, -7.78299951553339 ], [ 110.37583160400402, -7.783015727996769 ], [ 110.375503540039062, -7.783012866973877 ], [ 110.375114440917969, -7.782999038696232 ], [ 110.374961853027344, -7.78300952911377 ], [ 110.374877929687614, -7.782997608184814 ], [ 110.374732971191406, -7.782992839813232 ], [ 110.372940063476676, -7.782985210418701 ], [ 110.372406005859489, -7.782987117767277 ], [ 110.372077941894531, -7.782991409301701 ], [ 110.371566772460994, -7.782992839813232 ], [ 110.371398925781307, -7.782997131347656 ], [ 110.371322631835938, -7.782992362976074 ], [ 110.371215820312557, -7.782985210418701 ], [ 110.371131896972656, -7.782987594604435 ], [ 110.370994567871151, -7.782961368560791 ], [ 110.371009826660213, -7.782873153686523 ], [ 110.371078491210881, -7.782607555389404 ], [ 110.371261596679801, -7.782397270202637 ], [ 110.371345520019531, -7.782171726226807 ], [ 110.37143707275402, -7.781976699829102 ], [ 110.371498107910156, -7.781826496124211 ], [ 110.371482849121094, -7.781675815582219 ], [ 110.371383666992244, -7.781510353088379 ], [ 110.371170043945369, -7.781284809112549 ], [ 110.370628356933651, -7.781133651733398 ], [ 110.370399475097713, -7.78104305267334 ], [ 110.370239257812557, -7.780967712402344 ], [ 110.370117187500114, -7.780786991119385 ], [ 110.370010375976562, -7.780486106872559 ], [ 110.370132446289006, -7.780050754547062 ], [ 110.370269775390739, -7.779840469360295 ], [ 110.370330810546818, -7.779659748077393 ], [ 110.370330810546818, -7.779314041137695 ], [ 110.370300292968864, -7.779028415679932 ], [ 110.370361328125, -7.778773307800293 ], [ 110.370582580566406, -7.778487682342529 ], [ 110.370811462402401, -7.778202533721867 ], [ 110.371215820312557, -7.777803421020508 ], [ 110.371322631835938, -7.777643203735295 ], [ 110.371322631835938, -7.777406692504883 ], [ 110.371208190918026, -7.777090549468937 ], [ 110.371025085449276, -7.776713371276799 ], [ 110.370819091796932, -7.776363372802678 ], [ 110.370719909667969, -7.776163101196289 ], [ 110.370559692382812, -7.776052474975472 ], [ 110.370216369628963, -7.776007175445557 ], [ 110.37009429931652, -7.775901317596436 ], [ 110.370002746582031, -7.775705814361572 ], [ 110.370033264160213, -7.775450706481934 ], [ 110.370079040527457, -7.775223731994629 ], [ 110.370285034179801, -7.775222778320256 ], [ 110.370704650878849, -7.775272846221924 ], [ 110.370964050292969, -7.775304794311523 ], [ 110.371856689453068, -7.775421619415226 ], [ 110.372009277343864, -7.77546215057373 ], [ 110.372329711914119, -7.775520801544133 ], [ 110.372558593750114, -7.775586128234863 ], [ 110.372688293457088, -7.775614261627197 ], [ 110.372947692871207, -7.775484085083008 ], [ 110.373115539550838, -7.775491237640381 ], [ 110.374977111816463, -7.774915218353271 ], [ 110.375244140625114, -7.774761199951115 ], [ 110.375442504882926, -7.774647235870304 ], [ 110.375473022460881, -7.775815486907902 ], [ 110.375549316406307, -7.77611780166626 ], [ 110.375579833984432, -7.776227951049748 ], [ 110.375747680664119, -7.776535034179688 ], [ 110.376152038574276, -7.776611804962158 ], [ 110.376762390136832, -7.776685237884465 ], [ 110.376930236816463, -7.776679992675781 ], [ 110.377235412597656, -7.776724815368596 ], [ 110.37725830078125, -7.777070522308293 ], [ 110.377517700195426, -7.777221202850285 ], [ 110.37790679931652, -7.777377605438232 ], [ 110.378097534179801, -7.777411460876351 ], [ 110.378738403320312, -7.777819156646729 ], [ 110.379112243652344, -7.77808141708374 ], [ 110.379554748535213, -7.778149127960205 ], [ 110.379730224609375, -7.77852821350092 ], [ 110.379730224609375, -7.778811931610107 ], [ 110.379814147949332, -7.779035091400146 ], [ 110.380165100097713, -7.779938220977783 ], [ 110.380279541015625, -7.780016422271729 ], [ 110.380744934082088, -7.780245304107609 ], [ 110.380912780761776, -7.780229568481388 ], [ 110.38095855712902, -7.780775547027588 ], [ 110.380844116210938, -7.781155586242619 ], [ 110.380714416503963, -7.781562805175781 ], [ 110.380836486816406, -7.781615734100285 ], [ 110.380882263183594, -7.781705379486084 ], [ 110.380950927734489, -7.782004356384277 ], [ 110.381057739257812, -7.782375335693303 ], [ 110.381187438964787, -7.782815456390381 ], [ 110.381256103515625, -7.782895565032902 ], [ 110.381416320800781, -7.783025741577148 ], [ 110.381187438964787, -7.783035755157471 ], [ 110.381095886230526, -7.783035755157471 ], [ 110.379592895507869, -7.782985687255859 ], [ 110.379272460937614, -7.782985687255859 ] ] ] ] } }
]
}
