{
"type": "FeatureCollection",
"name": "pemerintahan",
"crs": { "type": "name", "properties": { "name": "urn:ogc:def:crs:OGC:1.3:CRS84" } },
"features": [
{ "type": "Feature", "properties": { "OBJECTID": 1, "NAMOBJ": null, "FGSGOV": 10, "LUAS": 0.0, "FCODE": null, "REMARK": "Kantor Lurah", "SRS_ID": null, "LCODE": "GD0020", "METADATA": null }, "geometry": { "type": "Point", "coordinates": [ 110.375313434288657, -7.778135083048779, 0.0 ] } },
{ "type": "Feature", "properties": { "OBJECTID": 2, "NAMOBJ": null, "FGSGOV": 10, "LUAS": 0.0, "FCODE": null, "REMARK": "Kantor Lurah", "SRS_ID": null, "LCODE": "GD0020", "METADATA": null }, "geometry": { "type": "Point", "coordinates": [ 110.386341915817866, -7.78246082069479, 0.0 ] } },
{ "type": "Feature", "properties": { "OBJECTID": 3, "NAMOBJ": null, "FGSGOV": 10, "LUAS": 0.0, "FCODE": null, "REMARK": "Kantor Lurah", "SRS_ID": null, "LCODE": "GD0020", "METADATA": null }, "geometry": { "type": "Point", "coordinates": [ 110.389357889634539, -7.786219813933876, 0.0 ] } },
{ "type": "Feature", "properties": { "OBJECTID": 4, "NAMOBJ": null, "FGSGOV": 10, "LUAS": 0.0, "FCODE": null, "REMARK": "Kantor Lurah", "SRS_ID": null, "LCODE": "GD0020", "METADATA": null }, "geometry": { "type": "Point", "coordinates": [ 110.377549859865411, -7.786202916301214, 0.0 ] } },
{ "type": "Feature", "properties": { "OBJECTID": 5, "NAMOBJ": null, "FGSGOV": 9, "LUAS": 0.0, "FCODE": null, "REMARK": "Kantor Camat", "SRS_ID": null, "LCODE": "GD0020", "METADATA": null }, "geometry": { "type": "Point", "coordinates": [ 110.387381475382881, -7.787114151020353, 0.0 ] } },
{ "type": "Feature", "properties": { "OBJECTID": 6, "NAMOBJ": null, "FGSGOV": 16, "LUAS": 0.0, "FCODE": null, "REMARK": "Kantor Polisi", "SRS_ID": null, "LCODE": "GK0020", "METADATA": null }, "geometry": { "type": "Point", "coordinates": [ 110.38699622809969, -7.792278822971713, 0.0 ] } },
{ "type": "Feature", "properties": { "OBJECTID": 7, "NAMOBJ": null, "FGSGOV": 10, "LUAS": 0.0, "FCODE": null, "REMARK": "Kantor Lurah", "SRS_ID": null, "LCODE": "GD0020", "METADATA": null }, "geometry": { "type": "Point", "coordinates": [ 110.384787307437691, -7.793499880851391, 0.0 ] } }
]
}
