{
"type": "FeatureCollection",
"name": "pendidikan",
"crs": { "type": "name", "properties": { "name": "urn:ogc:def:crs:OGC:1.3:CRS84" } },
"features": [
{ "type": "Feature", "properties": { "OBJECTID": 1, "NAMOBJ": null, "LUAS": 0.0, "KATPDK": 0, "JLPDDK": 0, "FGGPDK": 999, "REMARK": "Pendidikan/Penelitian Lainnya", "FCODE": null, "SRS_ID": null, "LCODE": "GE0020", "METADATA": null, "JJGPDF": 999, "JNSPDL": 0 }, "geometry": { "type": "Point", "coordinates": [ 110.375606945419335, -7.776578486386406, 0.0 ] } },
{ "type": "Feature", "properties": { "OBJECTID": 2, "NAMOBJ": null, "LUAS": 0.0, "KATPDK": 0, "JLPDDK": 0, "FGGPDK": 999, "REMARK": "Pendidikan/Penelitian Lainnya", "FCODE": null, "SRS_ID": null, "LCODE": "GE0020", "METADATA": null, "JJGPDF": 999, "JNSPDL": 0 }, "geometry": { "type": "Point", "coordinates": [ 110.378196308415767, -7.782949788639609, 0.0 ] } },
{ "type": "Feature", "properties": { "OBJECTID": 3, "NAMOBJ": null, "LUAS": 0.0, "KATPDK": 0, "JLPDDK": 0, "FGGPDK": 999, "REMARK": "Pendidikan/Penelitian Lainnya", "FCODE": null, "SRS_ID": null, "LCODE": "GE0020", "METADATA": null, "JJGPDF": 999, "JNSPDL": 0 }, "geometry": { "type": "Point", "coordinates": [ 110.38494836956005, -7.785051593446304, 0.0 ] } },
{ "type": "Feature", "properties": { "OBJECTID": 4, "NAMOBJ": null, "LUAS": 0.0, "KATPDK": 0, "JLPDDK": 0, "FGGPDK": 999, "REMARK": "Pendidikan/Penelitian Lainnya", "FCODE": null, "SRS_ID": null, "LCODE": "GE0020", "METADATA": null, "JJGPDF": 999, "JNSPDL": 0 }, "geometry": { "type": "Point", "coordinates": [ 110.377926005752428, -7.785620872411897, 0.0 ] } },
{ "type": "Feature", "properties": { "OBJECTID": 5, "NAMOBJ": null, "LUAS": 0.0, "KATPDK": 0, "JLPDDK": 0, "FGGPDK": 999, "REMARK": "Pendidikan/Penelitian Lainnya", "FCODE": null, "SRS_ID": null, "LCODE": "GE0020", "METADATA": null, "JJGPDF": 999, "JNSPDL": 0 }, "geometry": { "type": "Point", "coordinates": [ 110.383252150439773, -7.785977341266758, 0.0 ] } },
{ "type": "Feature", "properties": { "OBJECTID": 6, "NAMOBJ": null, "LUAS": 0.0, "KATPDK": 0, "JLPDDK": 0, "FGGPDK": 999, "REMARK": "Pendidikan/Penelitian Lainnya", "FCODE": null, "SRS_ID": null, "LCODE": "GE0020", "METADATA": null, "JJGPDF": 999, "JNSPDL": 0 }, "geometry": { "type": "Point", "coordinates": [ 110.387421329018721, -7.786587600281584, 0.0 ] } },
{ "type": "Feature", "properties": { "OBJECTID": 7, "NAMOBJ": null, "LUAS": 0.0, "KATPDK": 0, "JLPDDK": 0, "FGGPDK": 999, "REMARK": "Pendidikan/Penelitian Lainnya", "FCODE": null, "SRS_ID": null, "LCODE": "GE0020", "METADATA": null, "JJGPDF": 999, "JNSPDL": 0 }, "geometry": { "type": "Point", "coordinates": [ 110.381589141416939, -7.786885221665284, 0.0 ] } },
{ "type": "Feature", "properties": { "OBJECTID": 8, "NAMOBJ": null, "LUAS": 0.0, "KATPDK": 0, "JLPDDK": 0, "FGGPDK": 999, "REMARK": "Pendidikan/Penelitian Lainnya", "FCODE": null, "SRS_ID": null, "LCODE": "GE0020", "METADATA": null, "JJGPDF": 999, "JNSPDL": 0 }, "geometry": { "type": "Point", "coordinates": [ 110.375489544451042, -7.786906311159072, 0.0 ] } },
{ "type": "Feature", "properties": { "OBJECTID": 9, "NAMOBJ": null, "LUAS": 0.0, "KATPDK": 0, "JLPDDK": 0, "FGGPDK": 999, "REMARK": "Pendidikan/Penelitian Lainnya", "FCODE": null, "SRS_ID": null, "LCODE": "GE0020", "METADATA": null, "JJGPDF": 999, "JNSPDL": 0 }, "geometry": { "type": "Point", "coordinates": [ 110.376684510218709, -7.787278738863237, 0.0 ] } },
{ "type": "Feature", "properties": { "OBJECTID": 10, "NAMOBJ": null, "LUAS": 0.0, "KATPDK": 0, "JLPDDK": 0, "FGGPDK": 999, "REMARK": "Pendidikan/Penelitian Lainnya", "FCODE": null, "SRS_ID": null, "LCODE": "GE0020", "METADATA": null, "JJGPDF": 999, "JNSPDL": 0 }, "geometry": { "type": "Point", "coordinates": [ 110.391872871986763, -7.791459756677659, 0.0 ] } },
{ "type": "Feature", "properties": { "OBJECTID": 11, "NAMOBJ": null, "LUAS": 0.0, "KATPDK": 0, "JLPDDK": 0, "FGGPDK": 999, "REMARK": "Pendidikan/Penelitian Lainnya", "FCODE": null, "SRS_ID": null, "LCODE": "GE0020", "METADATA": null, "JJGPDF": 999, "JNSPDL": 0 }, "geometry": { "type": "Point", "coordinates": [ 110.390248850669167, -7.792120522680379, 0.0 ] } },
{ "type": "Feature", "properties": { "OBJECTID": 12, "NAMOBJ": null, "LUAS": 0.0, "KATPDK": 0, "JLPDDK": 0, "FGGPDK": 999, "REMARK": "Pendidikan/Penelitian Lainnya", "FCODE": null, "SRS_ID": null, "LCODE": "GE0020", "METADATA": null, "JJGPDF": 999, "JNSPDL": 0 }, "geometry": { "type": "Point", "coordinates": [ 110.372014696811007, -7.784919212154697, 0.0 ] } },
{ "type": "Feature", "properties": { "OBJECTID": 13, "NAMOBJ": null, "LUAS": 0.0, "KATPDK": 0, "JLPDDK": 0, "FGGPDK": 999, "REMARK": "Pendidikan/Penelitian Lainnya", "FCODE": null, "SRS_ID": null, "LCODE": "GE0020", "METADATA": null, "JJGPDF": 999, "JNSPDL": 0 }, "geometry": { "type": "Point", "coordinates": [ 110.37411655330547, -7.786104335968759, 0.0 ] } },
{ "type": "Feature", "properties": { "OBJECTID": 14, "NAMOBJ": null, "LUAS": 0.0, "KATPDK": 0, "JLPDDK": 0, "FGGPDK": 999, "REMARK": "Pendidikan/Penelitian Lainnya", "FCODE": null, "SRS_ID": null, "LCODE": "GE0020", "METADATA": null, "JJGPDF": 999, "JNSPDL": 0 }, "geometry": { "type": "Point", "coordinates": [ 110.373099441791993, -7.788477629934014, 0.0 ] } },
{ "type": "Feature", "properties": { "OBJECTID": 15, "NAMOBJ": null, "LUAS": 0.0, "KATPDK": 0, "JLPDDK": 0, "FGGPDK": 999, "REMARK": "Pendidikan/Penelitian Lainnya", "FCODE": null, "SRS_ID": null, "LCODE": "GE0020", "METADATA": null, "JJGPDF": 999, "JNSPDL": 0 }, "geometry": { "type": "Point", "coordinates": [ 110.370031364449289, -7.788910684269862, 0.0 ] } }
]
}
