{
"type": "FeatureCollection",
"name": "rumahsakit",
"crs": { "type": "name", "properties": { "name": "urn:ogc:def:crs:OGC:1.3:CRS84" } },
"features": [
{ "type": "Feature", "properties": { "OBJECTID": 1, "NAMOBJ": null, "FCODE": null, "LCODE": "GI0020", "REMARK": "Rumah Sakit Khusus", "METADATA": null, "SRS_ID": null, "TIPRST": 0, "JPLYRS": 2, "ALAMAT": null }, "geometry": { "type": "Point", "coordinates": [ 110.376280521259105, -7.77662985788432, 0.0 ] } },
{ "type": "Feature", "properties": { "OBJECTID": 2, "NAMOBJ": null, "FCODE": null, "LCODE": "GI0020", "REMARK": "Rumah Sakit Khusus", "METADATA": null, "SRS_ID": null, "TIPRST": 0, "JPLYRS": 2, "ALAMAT": null }, "geometry": { "type": "Point", "coordinates": [ 110.378361941906618, -7.783729450349443, 0.0 ] } },
{ "type": "Feature", "properties": { "OBJECTID": 3, "NAMOBJ": null, "FCODE": null, "LCODE": "GI0020", "REMARK": "Rumah Sakit Khusus", "METADATA": null, "SRS_ID": null, "TIPRST": 0, "JPLYRS": 2, "ALAMAT": null }, "geometry": { "type": "Point", "coordinates": [ 110.377024338256078, -7.786111693267475, 0.0 ] } }
]
}
