{
"type": "FeatureCollection",
"name": "saranaibadah",
"crs": { "type": "name", "properties": { "name": "urn:ogc:def:crs:OGC:1.3:CRS84" } },
"features": [
{ "type": "Feature", "properties": { "OBJECTID": 1, "NAMOBJ": null, "LUAS": 0.0, "FGSIBD": 1, "FCODE": null, "REMARK": "Masjid", "SRS_ID": null, "LCODE": "GF0020", "METADATA": null }, "geometry": { "type": "Point", "coordinates": [ 110.382431399593642, -7.783546441947235, 0.0 ] } },
{ "type": "Feature", "properties": { "OBJECTID": 2, "NAMOBJ": null, "LUAS": 0.0, "FGSIBD": 1, "FCODE": null, "REMARK": "Masjid", "SRS_ID": null, "LCODE": "GF0020", "METADATA": null }, "geometry": { "type": "Point", "coordinates": [ 110.386910251930274, -7.784854897380852, 0.0 ] } },
{ "type": "Feature", "properties": { "OBJECTID": 3, "NAMOBJ": null, "LUAS": 0.0, "FGSIBD": 2, "FCODE": null, "REMARK": "Gereja", "SRS_ID": null, "LCODE": "GF0020", "METADATA": null }, "geometry": { "type": "Point", "coordinates": [ 110.378974706581829, -7.785792457057108, 0.0 ] } },
{ "type": "Feature", "properties": { "OBJECTID": 4, "NAMOBJ": null, "LUAS": 0.0, "FGSIBD": 1, "FCODE": null, "REMARK": "Masjid", "SRS_ID": null, "LCODE": "GF0020", "METADATA": null }, "geometry": { "type": "Point", "coordinates": [ 110.382493265550181, -7.785952809928573, 0.0 ] } },
{ "type": "Feature", "properties": { "OBJECTID": 5, "NAMOBJ": null, "LUAS": 0.0, "FGSIBD": 2, "FCODE": null, "REMARK": "Gereja", "SRS_ID": null, "LCODE": "GF0020", "METADATA": null }, "geometry": { "type": "Point", "coordinates": [ 110.389658872898494, -7.792065131032577, 0.0 ] } },
{ "type": "Feature", "properties": { "OBJECTID": 6, "NAMOBJ": null, "LUAS": 0.0, "FGSIBD": 1, "FCODE": null, "REMARK": "Masjid", "SRS_ID": null, "LCODE": "GF0020", "METADATA": null }, "geometry": { "type": "Point", "coordinates": [ 110.392781315003816, -7.792307323759628, 0.0 ] } },
{ "type": "Feature", "properties": { "OBJECTID": 7, "NAMOBJ": null, "LUAS": 0.0, "FGSIBD": 1, "FCODE": null, "REMARK": "Masjid", "SRS_ID": null, "LCODE": "GF0020", "METADATA": null }, "geometry": { "type": "Point", "coordinates": [ 110.383087741949694, -7.794392968124425, 0.0 ] } },
{ "type": "Feature", "properties": { "OBJECTID": 8, "NAMOBJ": null, "LUAS": 0.0, "FGSIBD": 1, "FCODE": null, "REMARK": "Masjid", "SRS_ID": null, "LCODE": "GF0020", "METADATA": null }, "geometry": { "type": "Point", "coordinates": [ 110.379373243673825, -7.794518063379219, 0.0 ] } },
{ "type": "Feature", "properties": { "OBJECTID": 9, "NAMOBJ": null, "LUAS": 0.0, "FGSIBD": 1, "FCODE": null, "REMARK": "Masjid", "SRS_ID": null, "LCODE": "GF0020", "METADATA": null }, "geometry": { "type": "Point", "coordinates": [ 110.378288927684267, -7.797201157089093, 0.0 ] } },
{ "type": "Feature", "properties": { "OBJECTID": 10, "NAMOBJ": null, "LUAS": 0.0, "FGSIBD": 2, "FCODE": null, "REMARK": "Gereja", "SRS_ID": null, "LCODE": "GF0020", "METADATA": null }, "geometry": { "type": "Point", "coordinates": [ 110.373978742963544, -7.78271402027283, 0.0 ] } },
{ "type": "Feature", "properties": { "OBJECTID": 11, "NAMOBJ": null, "LUAS": 0.0, "FGSIBD": 1, "FCODE": null, "REMARK": "Masjid", "SRS_ID": null, "LCODE": "GF0020", "METADATA": null }, "geometry": { "type": "Point", "coordinates": [ 110.369187417766966, -7.786212176168379, 0.0 ] } },
{ "type": "Feature", "properties": { "OBJECTID": 12, "NAMOBJ": null, "LUAS": 0.0, "FGSIBD": 2, "FCODE": null, "REMARK": "Gereja", "SRS_ID": null, "LCODE": "GF0020", "METADATA": null }, "geometry": { "type": "Point", "coordinates": [ 110.370992147452029, -7.788379625049662, 0.0 ] } }
]
}
