{
"type": "FeatureCollection",
"name": "znt",
"crs": { "type": "name", "properties": { "name": "urn:ogc:def:crs:OGC:1.3:CRS84" } },
"features": [
{ "type": "Feature", "properties": { "OBJECTID": 1, "Id": 1, "gridcode": 3, "Shape_Leng": 284.70910135000003, "Shape_Area": 2918.20537603 }, "geometry": { "type": "MultiPolygon", "coordinates": [ [ [ [ 110.375499757290541, -7.775137936881916 ], [ 110.374402404213768, -7.775136321557285 ], [ 110.374456482603009, -7.775073905026886 ], [ 110.375379486846654, -7.774737385865217 ], [ 110.375499757290541, -7.775137936881916 ] ] ] ] } },
{ "type": "Feature", "properties": { "OBJECTID": 2, "Id": 2, "gridcode": 4, "Shape_Leng": 385.64131033199999, "Shape_Area": 9291.6673358799999 }, "geometry": { "type": "MultiPolygon", "coordinates": [ [ [ [ 110.370709826784903, -7.776125828567307 ], [ 110.370565787858325, -7.776070363431219 ], [ 110.370074538518793, -7.775929490234374 ], [ 110.369996182443614, -7.775293482639133 ], [ 110.370462429689411, -7.77523634351191 ], [ 110.37120980945447, -7.775330598568386 ], [ 110.370842889634659, -7.776058939640774 ], [ 110.370709826784903, -7.776125828567307 ] ] ] ] } },
{ "type": "Feature", "properties": { "OBJECTID": 3, "Id": 3, "gridcode": 3, "Shape_Leng": 44.000000001899998, "Shape_Area": 121.00000000999999 }, "geometry": { "type": "MultiPolygon", "coordinates": [ [ [ [ 110.37559789863819, -7.77623254191637 ], [ 110.375498138997457, -7.776232395188382 ], [ 110.37549828612471, -7.776132898981041 ], [ 110.375598045741953, -7.776133045707133 ], [ 110.37559789863819, -7.77623254191637 ] ] ] ] } },
{ "type": "Feature", "properties": { "OBJECTID": 4, "Id": 4, "gridcode": 3, "Shape_Leng": 62.247470503300001, "Shape_Area": 165.21378366 }, "geometry": { "type": "MultiPolygon", "coordinates": [ [ [ [ 110.372904241280168, -7.77632806819166 ], [ 110.372774667254205, -7.776272538795531 ], [ 110.372864619007572, -7.776101900827959 ], [ 110.372904241280168, -7.77632806819166 ] ] ] ] } },
{ "type": "Feature", "properties": { "OBJECTID": 5, "Id": 5, "gridcode": 3, "Shape_Leng": 88.000000003699995, "Shape_Area": 363.00000006099998 }, "geometry": { "type": "MultiPolygon", "coordinates": [ [ [ [ 110.376694520558829, -7.77673163552097 ], [ 110.376395241225978, -7.776731196011657 ], [ 110.376395388151423, -7.776631699789558 ], [ 110.376694667413773, -7.776632139293177 ], [ 110.376694520558829, -7.77673163552097 ] ] ] ] } },
{ "type": "Feature", "properties": { "OBJECTID": 6, "Id": 6, "gridcode": 3, "Shape_Leng": 62.247470508, "Shape_Area": 165.21378367099999 }, "geometry": { "type": "MultiPolygon", "coordinates": [ [ [ [ 110.372604223368214, -7.776825106784497 ], [ 110.372474649241781, -7.776769577289052 ], [ 110.37256460123325, -7.776598939407106 ], [ 110.372604223368214, -7.776825106784497 ] ] ] ] } },
{ "type": "Feature", "properties": { "OBJECTID": 7, "Id": 7, "gridcode": 3, "Shape_Leng": 237.19628408200001, "Shape_Area": 3098.69900865 }, "geometry": { "type": "MultiPolygon", "coordinates": [ [ [ [ 110.376894040123759, -7.776731928409983 ], [ 110.376934814424175, -7.776651833993955 ], [ 110.377242797514, -7.77680779388105 ], [ 110.377326054775395, -7.777097123499343 ], [ 110.377458449813275, -7.777164166854771 ], [ 110.377491865501185, -7.777230287722121 ], [ 110.37739876740433, -7.777345889678439 ], [ 110.376836642751016, -7.777184701882314 ], [ 110.376894040123759, -7.776731928409983 ] ] ] ] } },
{ "type": "Feature", "properties": { "OBJECTID": 8, "Id": 8, "gridcode": 3, "Shape_Leng": 85.462671592299998, "Shape_Area": 273.60150139900003 }, "geometry": { "type": "MultiPolygon", "coordinates": [ [ [ [ 110.378389118921362, -7.777629588407803 ], [ 110.378059396356321, -7.777590132981332 ], [ 110.378189745395247, -7.777529799935944 ], [ 110.37838926539419, -7.777530092152064 ], [ 110.378389118921362, -7.777629588407803 ] ] ] ] } },
{ "type": "Feature", "properties": { "OBJECTID": 9, "Id": 9, "gridcode": 3, "Shape_Leng": 44.000000003700002, "Shape_Area": 121.00000002 }, "geometry": { "type": "MultiPolygon", "coordinates": [ [ [ [ 110.378987093759093, -7.778028449568641 ], [ 110.37888733362955, -7.7780283036035 ], [ 110.378887479992571, -7.777928807340135 ], [ 110.37898724009861, -7.777928953303383 ], [ 110.378987093759093, -7.778028449568641 ] ] ] ] } },
{ "type": "Feature", "properties": { "OBJECTID": 10, "Id": 10, "gridcode": 3, "Shape_Leng": 43.999999998100002, "Shape_Area": 120.99999999000001 }, "geometry": { "type": "MultiPolygon", "coordinates": [ [ [ [ 110.379086707572611, -7.778128091776984 ], [ 110.378986947417644, -7.778127945833395 ], [ 110.378987093759093, -7.778028449568641 ], [ 110.37908685389057, -7.778028595510338 ], [ 110.379086707572611, -7.778128091776984 ] ] ] ] } },
{ "type": "Feature", "properties": { "OBJECTID": 11, "Id": 11, "gridcode": 4, "Shape_Leng": 43.9999999944, "Shape_Area": 120.999999969 }, "geometry": { "type": "MultiPolygon", "coordinates": [ [ [ [ 110.37030663419263, -7.778911127779584 ], [ 110.370306782594639, -7.778811631684118 ], [ 110.370406542745144, -7.77881177968063 ], [ 110.37040639436664, -7.778911275778008 ], [ 110.37030663419263, -7.778911127779584 ] ] ] ] } },
{ "type": "Feature", "properties": { "OBJECTID": 12, "Id": 12, "gridcode": 3, "Shape_Leng": 390.54782671100003, "Shape_Area": 6190.49574785 }, "geometry": { "type": "MultiPolygon", "coordinates": [ [ [ [ 110.374296895212112, -7.779016525600915 ], [ 110.374149358828262, -7.778879782918969 ], [ 110.374734743090684, -7.777476873285665 ], [ 110.374905715817931, -7.777916861443789 ], [ 110.374710112557338, -7.778730533628223 ], [ 110.374344950252208, -7.778964951645435 ], [ 110.374296895212112, -7.779016525600915 ] ] ] ] } },
{ "type": "Feature", "properties": { "OBJECTID": 13, "Id": 13, "gridcode": 3, "Shape_Leng": 314.43776326199998, "Shape_Area": 4663.4960185500004 }, "geometry": { "type": "MultiPolygon", "coordinates": [ [ [ [ 110.379783567071343, -7.779124075498553 ], [ 110.379235337654578, -7.779069498346504 ], [ 110.37913231062123, -7.779077603210514 ], [ 110.379039228027494, -7.779018098745449 ], [ 110.379439206745118, -7.778381048335094 ], [ 110.379485748211835, -7.778128675316906 ], [ 110.37962475204732, -7.778248470972311 ], [ 110.379783567071343, -7.779124075498553 ] ] ] ] } },
{ "type": "Feature", "properties": { "OBJECTID": 14, "Id": 14, "gridcode": 3, "Shape_Leng": 97.883570407199997, "Shape_Area": 430.12958945600002 }, "geometry": { "type": "MultiPolygon", "coordinates": [ [ [ [ 110.373897263879215, -7.779413921766857 ], [ 110.373554611054729, -7.779355347086257 ], [ 110.37371422227622, -7.779176685101461 ], [ 110.373897263879215, -7.779413921766857 ] ] ] ] } },
{ "type": "Feature", "properties": { "OBJECTID": 15, "Id": 15, "gridcode": 4, "Shape_Leng": 109.99999999800001, "Shape_Area": 483.99999995899998 }, "geometry": { "type": "MultiPolygon", "coordinates": [ [ [ [ 110.370305446906116, -7.779707096526731 ], [ 110.370306040565026, -7.77930911215692 ], [ 110.370405800833069, -7.779309260163006 ], [ 110.370405207268192, -7.779707244540482 ], [ 110.370305446906116, -7.779707096526731 ] ] ] ] } },
{ "type": "Feature", "properties": { "OBJECTID": 16, "Id": 16, "gridcode": 4, "Shape_Leng": 44.0, "Shape_Area": 121.0 }, "geometry": { "type": "MultiPolygon", "coordinates": [ [ [ [ 110.370105332309521, -7.780104784775878 ], [ 110.37010548078203, -7.780005288689833 ], [ 110.370205241210726, -7.780005436756228 ], [ 110.370205092761736, -7.780104932844187 ], [ 110.370105332309521, -7.780104784775878 ] ] ] ] } },
{ "type": "Feature", "properties": { "OBJECTID": 17, "Id": 17, "gridcode": 3, "Shape_Leng": 44.000000003700002, "Shape_Area": 121.00000002 }, "geometry": { "type": "MultiPolygon", "coordinates": [ [ [ [ 110.38187678769242, -7.780321087588391 ], [ 110.38187693339448, -7.780221591279239 ], [ 110.381976694098967, -7.780221736582472 ], [ 110.381976548420411, -7.780321232893503 ], [ 110.38187678769242, -7.780321087588391 ] ] ] ] } },
{ "type": "Feature", "properties": { "OBJECTID": 18, "Id": 18, "gridcode": 4, "Shape_Leng": 43.9999999944, "Shape_Area": 120.999999969 }, "geometry": { "type": "MultiPolygon", "coordinates": [ [ [ [ 110.370104589917617, -7.780602265199066 ], [ 110.370004829349824, -7.780602117097727 ], [ 110.370004977855629, -7.780502621015958 ], [ 110.370104738399917, -7.780502769115378 ], [ 110.370104589917617, -7.780602265199066 ] ] ] ] } },
{ "type": "Feature", "properties": { "OBJECTID": 19, "Id": 19, "gridcode": 4, "Shape_Leng": 292.12118581700003, "Shape_Area": 4759.1798954100004 }, "geometry": { "type": "MultiPolygon", "coordinates": [ [ [ [ 110.390654589939331, -7.781129756443838 ], [ 110.39031116779914, -7.780974514636955 ], [ 110.389975586893939, -7.780878300019151 ], [ 110.390057317510951, -7.780233428269243 ], [ 110.390593390046192, -7.780449665791109 ], [ 110.390627469312747, -7.7806819824514 ], [ 110.390597485781825, -7.780882349223227 ], [ 110.390654589939331, -7.781129756443838 ] ] ] ] } },
{ "type": "Feature", "properties": { "OBJECTID": 20, "Id": 20, "gridcode": 3, "Shape_Leng": 564.71398015199998, "Shape_Area": 17922.6516821 }, "geometry": { "type": "MultiPolygon", "coordinates": [ [ [ [ 110.374792307111903, -7.781305672711162 ], [ 110.373147333496675, -7.781247839873053 ], [ 110.37343247070865, -7.780254769281168 ], [ 110.374008180707307, -7.780373258888096 ], [ 110.37490184331412, -7.780356386797135 ], [ 110.374792307111903, -7.781305672711162 ] ] ] ] } },
{ "type": "Feature", "properties": { "OBJECTID": 21, "Id": 21, "gridcode": 4, "Shape_Leng": 349.56756241400001, "Shape_Area": 4026.1312665 }, "geometry": { "type": "MultiPolygon", "coordinates": [ [ [ [ 110.371300531212384, -7.781400009422612 ], [ 110.370960738837084, -7.781241151395522 ], [ 110.370199593661994, -7.780973781305899 ], [ 110.370104589917617, -7.780602265199066 ], [ 110.370746837710328, -7.780910367576803 ], [ 110.371260317687572, -7.781042602785192 ], [ 110.371300531212384, -7.781400009422612 ] ] ] ] } },
{ "type": "Feature", "properties": { "OBJECTID": 22, "Id": 22, "gridcode": 3, "Shape_Leng": 41.501399259700001, "Shape_Area": 82.843515828899996 }, "geometry": { "type": "MultiPolygon", "coordinates": [ [ [ [ 110.377884600289917, -7.781509210922638 ], [ 110.377763019684409, -7.781474971924565 ], [ 110.377850627864888, -7.781387852754797 ], [ 110.377884600289917, -7.781509210922638 ] ] ] ] } },
{ "type": "Feature", "properties": { "OBJECTID": 23, "Id": 23, "gridcode": 3, "Shape_Leng": 218.083906474, "Shape_Area": 967.28526717900002 }, "geometry": { "type": "MultiPolygon", "coordinates": [ [ [ [ 110.377884600289917, -7.781509210922638 ], [ 110.378826739251934, -7.781559435461364 ], [ 110.378724422617623, -7.78168119826406 ], [ 110.377928881228286, -7.781564527528141 ], [ 110.377884600289917, -7.781509210922638 ] ] ] ] } },
{ "type": "Feature", "properties": { "OBJECTID": 24, "Id": 24, "gridcode": 4, "Shape_Leng": 44.000000003700002, "Shape_Area": 121.00000002 }, "geometry": { "type": "MultiPolygon", "coordinates": [ [ [ [ 110.371399402799142, -7.781997133853626 ], [ 110.371399551003108, -7.781897637751575 ], [ 110.371499311903975, -7.781897785549472 ], [ 110.371499163723513, -7.781997281653433 ], [ 110.371399402799142, -7.781997133853626 ] ] ] ] } },
{ "type": "Feature", "properties": { "OBJECTID": 25, "Id": 25, "gridcode": 3, "Shape_Leng": 229.356944535, "Shape_Area": 1872.94924765 }, "geometry": { "type": "MultiPolygon", "coordinates": [ [ [ [ 110.378382525645222, -7.782106919432258 ], [ 110.377459339100128, -7.782078784039252 ], [ 110.377662008215111, -7.781881561161065 ], [ 110.378357405102747, -7.781933198801431 ], [ 110.378382525645222, -7.782106919432258 ] ] ] ] } },
{ "type": "Feature", "properties": { "OBJECTID": 26, "Id": 26, "gridcode": 3, "Shape_Leng": 801.94179905600004, "Shape_Area": 24559.038994300001 }, "geometry": { "type": "MultiPolygon", "coordinates": [ [ [ [ 110.379982357226979, -7.779621848412654 ], [ 110.380048555364098, -7.779655369724765 ], [ 110.380215634946566, -7.779988301372216 ], [ 110.380729650005108, -7.780244065464198 ], [ 110.380979233052415, -7.780120786202315 ], [ 110.38102991797966, -7.780646568206659 ], [ 110.381337611671398, -7.781067966443303 ], [ 110.381106917225637, -7.781251663474676 ], [ 110.381145583113167, -7.78156543688826 ], [ 110.38081890487517, -7.781658075786114 ], [ 110.380960374169206, -7.782154933494897 ], [ 110.380209076958295, -7.782063718747553 ], [ 110.380315167520351, -7.78122311277314 ], [ 110.37983644501216, -7.780839625305608 ], [ 110.379926455449251, -7.779964500985044 ], [ 110.379982357226979, -7.779621848412654 ] ] ] ] } },
{ "type": "Feature", "properties": { "OBJECTID": 27, "Id": 27, "gridcode": 3, "Shape_Leng": 978.10588545400003, "Shape_Area": 50612.083821100001 }, "geometry": { "type": "MultiPolygon", "coordinates": [ [ [ [ 110.385168892728174, -7.780325870275752 ], [ 110.38570147955356, -7.780389383772245 ], [ 110.385934661762079, -7.780263443675574 ], [ 110.386318502748935, -7.780286818220453 ], [ 110.387264014176267, -7.780229404097904 ], [ 110.387190102257392, -7.780763031219214 ], [ 110.386920835985904, -7.782158675179335 ], [ 110.384617672505968, -7.782064289037495 ], [ 110.384220506120826, -7.782079412432099 ], [ 110.384322364379472, -7.781852489611158 ], [ 110.384901423262505, -7.781318944617968 ], [ 110.385120548482107, -7.780576438283447 ], [ 110.385168892728174, -7.780325870275752 ] ] ] ] } },
{ "type": "Feature", "properties": { "OBJECTID": 28, "Id": 28, "gridcode": 4, "Shape_Leng": 184.333239507, "Shape_Area": 1316.3425789600001 }, "geometry": { "type": "MultiPolygon", "coordinates": [ [ [ [ 110.391351195615798, -7.782324716501239 ], [ 110.391201983544093, -7.782221652021112 ], [ 110.391052916487212, -7.781627811707049 ], [ 110.391288091269217, -7.78169879780728 ], [ 110.391351195615798, -7.782324716501239 ] ] ] ] } },
{ "type": "Feature", "properties": { "OBJECTID": 29, "Id": 29, "gridcode": 3, "Shape_Leng": 2606.8301561799999, "Shape_Area": 113613.07887300001 }, "geometry": { "type": "MultiPolygon", "coordinates": [ [ [ [ 110.371199139671845, -7.782494318667661 ], [ 110.371365642725877, -7.782162651927028 ], [ 110.371399402799142, -7.781997133853626 ], [ 110.371499163723513, -7.781997281653433 ], [ 110.371499311903975, -7.781897785549472 ], [ 110.371458950012652, -7.781639875026874 ], [ 110.371300531212384, -7.781400009422612 ], [ 110.371260317687572, -7.781042602785192 ], [ 110.370746837710328, -7.780910367576803 ], [ 110.370104589917617, -7.780602265199066 ], [ 110.370104738399917, -7.780502769115378 ], [ 110.370004977855629, -7.780502621015958 ], [ 110.370105332309521, -7.780104784775878 ], [ 110.370205092761736, -7.780104932844187 ], [ 110.370205241210726, -7.780005436756228 ], [ 110.370271686666172, -7.779872614511152 ], [ 110.370305446906116, -7.779707096526731 ], [ 110.370405207268192, -7.779707244540482 ], [ 110.370405800833069, -7.779309260163006 ], [ 110.370306040565026, -7.77930911215692 ], [ 110.37030663419263, -7.778911127779584 ], [ 110.37040639436664, -7.778911275778008 ], [ 110.370406542745144, -7.77881177968063 ], [ 110.370460737738171, -7.778633215018301 ], [ 110.371259912147266, -7.777672536687823 ], [ 110.371352572463636, -7.777457941938971 ], [ 110.370709826784903, -7.776125828567307 ], [ 110.370842889634659, -7.776058939640774 ], [ 110.37120980945447, -7.775330598568386 ], [ 110.372063973785913, -7.775474702088009 ], [ 110.372107347811522, -7.775530919483982 ], [ 110.372047334428146, -7.775728659193089 ], [ 110.371502748063691, -7.776698770436328 ], [ 110.371659110828887, -7.777566231574009 ], [ 110.371758307001727, -7.778660838390305 ], [ 110.371953435461279, -7.778283425230027 ], [ 110.372146496323097, -7.77764730675144 ], [ 110.373083767717659, -7.777771026212895 ], [ 110.372947535842982, -7.778264611546867 ], [ 110.372671222165138, -7.779469390026287 ], [ 110.371660787035808, -7.779311524678205 ], [ 110.371644357254908, -7.779511733392829 ], [ 110.372178611914222, -7.780202612221817 ], [ 110.372353288254104, -7.780353156618783 ], [ 110.372583743325734, -7.780620738249671 ], [ 110.372989139393042, -7.78097012507132 ], [ 110.372273990045372, -7.780911750552216 ], [ 110.371951125721822, -7.782449384284379 ], [ 110.371199139671845, -7.782494318667661 ] ] ] ] } },
{ "type": "Feature", "properties": { "OBJECTID": 30, "Id": 30, "gridcode": 3, "Shape_Leng": 438.54227160900001, "Shape_Area": 6236.6664175100004 }, "geometry": { "type": "MultiPolygon", "coordinates": [ [ [ [ 110.37459101606008, -7.78249933262241 ], [ 110.373045028664208, -7.782446282268261 ], [ 110.372944046001876, -7.782448188652226 ], [ 110.372846719552498, -7.782143463990184 ], [ 110.374529038561192, -7.782180191211974 ], [ 110.37459101606008, -7.78249933262241 ] ] ] ] } },
{ "type": "Feature", "properties": { "OBJECTID": 31, "Id": 31, "gridcode": 4, "Shape_Leng": 78.769915334900006, "Shape_Area": 325.16580578899999 }, "geometry": { "type": "MultiPolygon", "coordinates": [ [ [ [ 110.391848281719746, -7.783519389637684 ], [ 110.391616582866106, -7.783392291569863 ], [ 110.3917488069185, -7.783320253636812 ], [ 110.391848568540567, -7.783320396675917 ], [ 110.391848281719746, -7.783519389637684 ] ] ] ] } },
{ "type": "Feature", "properties": { "OBJECTID": 32, "Id": 32, "gridcode": 3, "Shape_Leng": 41.501399254699997, "Shape_Area": 82.843515809099998 }, "geometry": { "type": "MultiPolygon", "coordinates": [ [ [ [ 110.375586713076302, -7.783794252448691 ], [ 110.37570829410889, -7.783828492105729 ], [ 110.375620684974422, -7.783915610747946 ], [ 110.375586713076302, -7.783794252448691 ] ] ] ] } },
{ "type": "Feature", "properties": { "OBJECTID": 33, "Id": 33, "gridcode": 4, "Shape_Leng": 44.000000001899998, "Shape_Area": 121.00000000999999 }, "geometry": { "type": "MultiPolygon", "coordinates": [ [ [ [ 110.392047088213744, -7.78401715806776 ], [ 110.391947326423235, -7.784017015062623 ], [ 110.391947469820508, -7.783917518582432 ], [ 110.392047231587497, -7.783917661585721 ], [ 110.392047088213744, -7.78401715806776 ] ] ] ] } },
{ "type": "Feature", "properties": { "OBJECTID": 34, "Id": 34, "gridcode": 1, "Shape_Leng": 78.10483313, "Shape_Area": 286.66540347699998 }, "geometry": { "type": "MultiPolygon", "coordinates": [ [ [ [ 110.385961332837624, -7.784207384556657 ], [ 110.385726560628271, -7.784156660952392 ], [ 110.385836883557573, -7.78398016707869 ], [ 110.385961332837624, -7.784207384556657 ] ] ] ] } },
{ "type": "Feature", "properties": { "OBJECTID": 35, "Id": 35, "gridcode": 4, "Shape_Leng": 44.000000007499999, "Shape_Area": 121.00000004100001 }, "geometry": { "type": "MultiPolygon", "coordinates": [ [ [ [ 110.39214641994414, -7.784315790498247 ], [ 110.392046658081142, -7.784315647511023 ], [ 110.392046801460566, -7.784216151030369 ], [ 110.392146563300031, -7.784216294015745 ], [ 110.39214641994414, -7.784315790498247 ] ] ] ] } },
{ "type": "Feature", "properties": { "OBJECTID": 36, "Id": 36, "gridcode": 3, "Shape_Leng": 62.247439727, "Shape_Area": 165.21396194299999 }, "geometry": { "type": "MultiPolygon", "coordinates": [ [ [ [ 110.378578677489799, -7.784395625084064 ], [ 110.378449099806701, -7.784340096995666 ], [ 110.378539051721049, -7.784169458413822 ], [ 110.378578677489799, -7.784395625084064 ] ] ] ] } },
{ "type": "Feature", "properties": { "OBJECTID": 37, "Id": 37, "gridcode": 1, "Shape_Leng": 83.457144686099994, "Shape_Area": 249.766991539 }, "geometry": { "type": "MultiPolygon", "coordinates": [ [ [ [ 110.381970573946347, -7.784400581241245 ], [ 110.381836497631156, -7.784329899037087 ], [ 110.381928340106356, -7.784072684212305 ], [ 110.381970573946347, -7.784400581241245 ] ] ] ] } },
{ "type": "Feature", "properties": { "OBJECTID": 38, "Id": 38, "gridcode": 1, "Shape_Leng": 41.501399257499997, "Shape_Area": 82.843515820600004 }, "geometry": { "type": "MultiPolygon", "coordinates": [ [ [ [ 110.383765994061122, -7.784602186758736 ], [ 110.38364441197362, -7.784567949343833 ], [ 110.383732019728455, -7.78448082892687 ], [ 110.383765994061122, -7.784602186758736 ] ] ] ] } },
{ "type": "Feature", "properties": { "OBJECTID": 39, "Id": 39, "gridcode": 4, "Shape_Leng": 65.9999999944, "Shape_Area": 241.99999995900001 }, "geometry": { "type": "MultiPolygon", "coordinates": [ [ [ [ 110.39224575180053, -7.784614422912138 ], [ 110.392145989865099, -7.784614279942826 ], [ 110.392146276586345, -7.784415286980249 ], [ 110.392246038474724, -7.78441542994586 ], [ 110.39224575180053, -7.784614422912138 ] ] ] ] } },
{ "type": "Feature", "properties": { "OBJECTID": 40, "Id": 40, "gridcode": 1, "Shape_Leng": 41.501399257000003, "Shape_Area": 82.843515818100002 }, "geometry": { "type": "MultiPolygon", "coordinates": [ [ [ [ 110.383566325128811, -7.784701393128445 ], [ 110.383444743034062, -7.784667155655471 ], [ 110.38353235084908, -7.784580035285037 ], [ 110.383566325128811, -7.784701393128445 ] ] ] ] } },
{ "type": "Feature", "properties": { "OBJECTID": 41, "Id": 41, "gridcode": 1, "Shape_Leng": 41.501399256299997, "Shape_Area": 82.843515815399996 }, "geometry": { "type": "MultiPolygon", "coordinates": [ [ [ [ 110.383566325128811, -7.784701393128445 ], [ 110.383687907245815, -7.784735630568036 ], [ 110.383600299425567, -7.784822750969973 ], [ 110.383566325128811, -7.784701393128445 ] ] ] ] } },
{ "type": "Feature", "properties": { "OBJECTID": 42, "Id": 42, "gridcode": 4, "Shape_Leng": 44.0, "Shape_Area": 121.0 }, "geometry": { "type": "MultiPolygon", "coordinates": [ [ [ [ 110.392345227103164, -7.784813558826122 ], [ 110.392245465118776, -7.784813415876578 ], [ 110.392245608460598, -7.784713919394599 ], [ 110.392345370421452, -7.784714062342298 ], [ 110.392345227103164, -7.784813558826122 ] ] ] ] } },
{ "type": "Feature", "properties": { "OBJECTID": 43, "Id": 43, "gridcode": 3, "Shape_Leng": 172.48703491699999, "Shape_Area": 1199.16132156 }, "geometry": { "type": "MultiPolygon", "coordinates": [ [ [ [ 110.388653602363462, -7.785106743309156 ], [ 110.388520424059166, -7.785039308801241 ], [ 110.388597296277965, -7.784476257759814 ], [ 110.388834581285053, -7.784547688619901 ], [ 110.388687500273434, -7.784841726951897 ], [ 110.388653602363462, -7.785106743309156 ] ] ] ] } },
{ "type": "Feature", "properties": { "OBJECTID": 44, "Id": 44, "gridcode": 3, "Shape_Leng": 163.56705009300001, "Shape_Area": 1180.9334755699999 }, "geometry": { "type": "MultiPolygon", "coordinates": [ [ [ [ 110.388552975030862, -7.785703577947757 ], [ 110.388176443196983, -7.785660321885981 ], [ 110.388507371422804, -7.785183771563301 ], [ 110.388552975030862, -7.785703577947757 ] ] ] ] } },
{ "type": "Feature", "properties": { "OBJECTID": 45, "Id": 45, "gridcode": 3, "Shape_Leng": 127.447862136, "Shape_Area": 425.97427641600001 }, "geometry": { "type": "MultiPolygon", "coordinates": [ [ [ [ 110.376581239675545, -7.785885139819178 ], [ 110.376442670350343, -7.785796379031893 ], [ 110.37653679737808, -7.785352321028462 ], [ 110.376581239675545, -7.785885139819178 ] ] ] ] } },
{ "type": "Feature", "properties": { "OBJECTID": 46, "Id": 46, "gridcode": 3, "Shape_Leng": 1180.16639433, "Shape_Area": 38566.710470700011 }, "geometry": { "type": "MultiPolygon", "coordinates": [ [ [ [ 110.377877704820463, -7.786185533112 ], [ 110.377419115018085, -7.786135160417049 ], [ 110.377021562607368, -7.785721264731126 ], [ 110.377047352338636, -7.784545791754624 ], [ 110.37663150248811, -7.785242112551591 ], [ 110.376516204079849, -7.784529107416734 ], [ 110.37606056502203, -7.78430781408582 ], [ 110.376402404120185, -7.783981219514944 ], [ 110.376533964967095, -7.783446413252079 ], [ 110.37773116831039, -7.783402856151167 ], [ 110.377431670513289, -7.783547228194013 ], [ 110.377034190977412, -7.783837587682063 ], [ 110.378162295820104, -7.783949299288019 ], [ 110.377927690014388, -7.7854383880903 ], [ 110.377877704820463, -7.786185533112 ] ] ] ] } },
{ "type": "Feature", "properties": { "OBJECTID": 47, "Id": 47, "gridcode": 1, "Shape_Leng": 457.07885618900002, "Shape_Area": 10184.4230412 }, "geometry": { "type": "MultiPolygon", "coordinates": [ [ [ [ 110.386956058214921, -7.78619875529512 ], [ 110.38621166162082, -7.786121937850721 ], [ 110.386358841738314, -7.785683842759666 ], [ 110.386799189917426, -7.785439644599428 ], [ 110.387096986066837, -7.78546394268509 ], [ 110.387468390201462, -7.785257977861924 ], [ 110.387901286019641, -7.785375659743258 ], [ 110.387509104931709, -7.78575551966208 ], [ 110.387002307276362, -7.786145374016549 ], [ 110.386956058214921, -7.78619875529512 ] ] ] ] } },
{ "type": "Feature", "properties": { "OBJECTID": 48, "Id": 48, "gridcode": 3, "Shape_Leng": 347.88386013299998, "Shape_Area": 5345.8797059400003 }, "geometry": { "type": "MultiPolygon", "coordinates": [ [ [ [ 110.37598104875471, -7.786978717256184 ], [ 110.375477405005071, -7.786928934239121 ], [ 110.374740275008747, -7.78648091126608 ], [ 110.374900783692254, -7.786378572660475 ], [ 110.376071661696841, -7.786583568212374 ], [ 110.37598104875471, -7.786978717256184 ] ] ] ] } },
{ "type": "Feature", "properties": { "OBJECTID": 49, "Id": 49, "gridcode": 4, "Shape_Leng": 148.97640429200001, "Shape_Area": 1109.1860042400001 }, "geometry": { "type": "MultiPolygon", "coordinates": [ [ [ [ 110.392939932553375, -7.787500821216174 ], [ 110.392803155570562, -7.787419687126408 ], [ 110.392949323905569, -7.787065816759693 ], [ 110.393274077212595, -7.787222949883111 ], [ 110.393014372634283, -7.787375996721653 ], [ 110.392939932553375, -7.787500821216174 ] ] ] ] } },
{ "type": "Feature", "properties": { "OBJECTID": 50, "Id": 50, "gridcode": 3, "Shape_Leng": 41.501399257000003, "Shape_Area": 82.843515818100002 }, "geometry": { "type": "MultiPolygon", "coordinates": [ [ [ [ 110.375680289191777, -7.787973238247747 ], [ 110.375558706994113, -7.787938998494783 ], [ 110.375646317042339, -7.787851879948999 ], [ 110.375680289191777, -7.787973238247747 ] ] ] ] } },
{ "type": "Feature", "properties": { "OBJECTID": 51, "Id": 51, "gridcode": 3, "Shape_Leng": 207.01326275299999, "Shape_Area": 2158.40872064 }, "geometry": { "type": "MultiPolygon", "coordinates": [ [ [ [ 110.376777675914511, -7.787974852914112 ], [ 110.376240894838318, -7.787929868826605 ], [ 110.376803521192969, -7.787439475328294 ], [ 110.376914851514286, -7.787670651995643 ], [ 110.376777675914511, -7.787974852914112 ] ] ] ] } },
{ "type": "Feature", "properties": { "OBJECTID": 52, "Id": 52, "gridcode": 1, "Shape_Leng": 3013.2970022300001, "Shape_Area": 103175.672783 }, "geometry": { "type": "MultiPolygon", "coordinates": [ [ [ [ 110.378472904394258, -7.788474823758687 ], [ 110.378473051054058, -7.788375327552127 ], [ 110.37847334436789, -7.78817633513752 ], [ 110.378598942329788, -7.787569298957979 ], [ 110.378796160583335, -7.786426276237528 ], [ 110.378927154966888, -7.78554133982611 ], [ 110.379026388788645, -7.78454453032088 ], [ 110.379129021744973, -7.783949692214678 ], [ 110.379269753752226, -7.782954933602398 ], [ 110.38012411750428, -7.783066021342336 ], [ 110.380129581418231, -7.783353674282415 ], [ 110.379542112490782, -7.78349559788862 ], [ 110.379519075277372, -7.784545901187339 ], [ 110.38081005713174, -7.784830511649041 ], [ 110.381022741561466, -7.785144427482511 ], [ 110.381186315865662, -7.785481949352332 ], [ 110.381411661610144, -7.785248715063003 ], [ 110.381623246356085, -7.785244717275362 ], [ 110.381616698359579, -7.785543279947844 ], [ 110.38192015802224, -7.785446216207421 ], [ 110.382481118225328, -7.784865614363643 ], [ 110.383089977199418, -7.784620336292521 ], [ 110.383216087599749, -7.784751627364631 ], [ 110.383607790305277, -7.785128064357358 ], [ 110.383074090032636, -7.785257002258025 ], [ 110.383214923769216, -7.785547597856689 ], [ 110.383413883088167, -7.785934167228713 ], [ 110.383214137656921, -7.786146607938226 ], [ 110.382938769445403, -7.786140602127608 ], [ 110.382316048935607, -7.786240774701799 ], [ 110.382131658962663, -7.786804671512937 ], [ 110.381921468387006, -7.787235165415009 ], [ 110.381510698515484, -7.786855083469844 ], [ 110.381717453281055, -7.786255510119612 ], [ 110.381119593300653, -7.786139254310648 ], [ 110.380731445475661, -7.786337959924447 ], [ 110.380321095296949, -7.78604086138595 ], [ 110.380082389621876, -7.785548309691428 ], [ 110.379234846646114, -7.785529818619039 ], [ 110.379209290332, -7.78669492852452 ], [ 110.380518963033012, -7.787168837348985 ], [ 110.380154017394574, -7.787979825734038 ], [ 110.379138247995371, -7.78763141201877 ], [ 110.379019235697001, -7.787628816193519 ], [ 110.37876077560405, -7.788419213707393 ], [ 110.378472904394258, -7.788474823758687 ] ] ] ] } },
{ "type": "Feature", "properties": { "OBJECTID": 53, "Id": 53, "gridcode": 3, "Shape_Leng": 65.999999998099995, "Shape_Area": 241.99999998000001 }, "geometry": { "type": "MultiPolygon", "coordinates": [ [ [ [ 110.378372995119378, -7.788574173682049 ], [ 110.378373288488021, -7.788375181273112 ], [ 110.378473051054058, -7.788375327552127 ], [ 110.378472904394258, -7.788474823758687 ], [ 110.37847275773251, -7.788574319964845 ], [ 110.378372995119378, -7.788574173682049 ] ] ] ] } },
{ "type": "Feature", "properties": { "OBJECTID": 54, "Id": 54, "gridcode": 2, "Shape_Leng": 294.52156860899998, "Shape_Area": 3911.2272548300002 }, "geometry": { "type": "MultiPolygon", "coordinates": [ [ [ [ 110.372387093778272, -7.788664849845514 ], [ 110.372179774675018, -7.788602262008506 ], [ 110.371843393384509, -7.787802334829025 ], [ 110.372130674979417, -7.787523962432937 ], [ 110.372337574062783, -7.78806320613545 ], [ 110.372387093778272, -7.788664849845514 ] ] ] ] } },
{ "type": "Feature", "properties": { "OBJECTID": 55, "Id": 55, "gridcode": 2, "Shape_Leng": 209.76814815, "Shape_Area": 1810.34778228 }, "geometry": { "type": "MultiPolygon", "coordinates": [ [ [ [ 110.37448284511845, -7.788170465818982 ], [ 110.37444447925796, -7.788690958382443 ], [ 110.374315660316398, -7.788436060899341 ], [ 110.374113984435155, -7.7883339348958 ], [ 110.373969022953787, -7.788036786455378 ], [ 110.374349666765923, -7.78810419749631 ], [ 110.37448284511845, -7.788170465818982 ] ] ] ] } },
{ "type": "Feature", "properties": { "OBJECTID": 56, "Id": 56, "gridcode": 3, "Shape_Leng": 198.49681221899999, "Shape_Area": 1692.07551059 }, "geometry": { "type": "MultiPolygon", "coordinates": [ [ [ [ 110.379868702828887, -7.789073846614958 ], [ 110.379126976898874, -7.789023665437472 ], [ 110.379564004911558, -7.788678952372634 ], [ 110.379868702828887, -7.789073846614958 ] ] ] ] } },
{ "type": "Feature", "properties": { "OBJECTID": 57, "Id": 57, "gridcode": 3, "Shape_Leng": 62.411205257699997, "Shape_Area": 163.332524234 }, "geometry": { "type": "MultiPolygon", "coordinates": [ [ [ [ 110.379868702828887, -7.789073846614958 ], [ 110.380098066981333, -7.789114511450558 ], [ 110.379922723147189, -7.789200257706916 ], [ 110.379868702828887, -7.789073846614958 ] ] ] ] } },
{ "type": "Feature", "properties": { "OBJECTID": 58, "Id": 58, "gridcode": 4, "Shape_Leng": 954.29600581, "Shape_Area": 37867.599098400002 }, "geometry": { "type": "MultiPolygon", "coordinates": [ [ [ [ 110.384357593061353, -7.789378879620034 ], [ 110.383123869562908, -7.789326718223076 ], [ 110.381617454630089, -7.789009786020205 ], [ 110.381926686109338, -7.788557649185207 ], [ 110.383459058075886, -7.78835670957402 ], [ 110.385394444466968, -7.788244483147829 ], [ 110.38516389889682, -7.789226259685543 ], [ 110.384404745716267, -7.789326401805718 ], [ 110.384357593061353, -7.789378879620034 ] ] ] ] } },
{ "type": "Feature", "properties": { "OBJECTID": 59, "Id": 59, "gridcode": 4, "Shape_Leng": 44.000000001899998, "Shape_Area": 121.00000000999999 }, "geometry": { "type": "MultiPolygon", "coordinates": [ [ [ [ 110.371288370871326, -7.789558688268646 ], [ 110.371288519247273, -7.789459192204103 ], [ 110.371388281934344, -7.789459340170807 ], [ 110.371388133581917, -7.789558836237261 ], [ 110.371288370871326, -7.789558688268646 ] ] ] ] } },
{ "type": "Feature", "properties": { "OBJECTID": 60, "Id": 60, "gridcode": 2, "Shape_Leng": 41.501399261000003, "Shape_Area": 82.843515834100003 }, "geometry": { "type": "MultiPolygon", "coordinates": [ [ [ [ 110.38116488864776, -7.78957322327182 ], [ 110.38119921862689, -7.789451965010606 ], [ 110.381286571861764, -7.789539340195998 ], [ 110.38116488864776, -7.78957322327182 ] ] ] ] } },
{ "type": "Feature", "properties": { "OBJECTID": 61, "Id": 61, "gridcode": 2, "Shape_Leng": 41.501399258600003, "Shape_Area": 82.843515824400001 }, "geometry": { "type": "MultiPolygon", "coordinates": [ [ [ [ 110.381863229005418, -7.789574242289103 ], [ 110.38174164571366, -7.78954000423625 ], [ 110.381829254944464, -7.789452884344505 ], [ 110.381863229005418, -7.789574242289103 ] ] ] ] } },
{ "type": "Feature", "properties": { "OBJECTID": 62, "Id": 62, "gridcode": 3, "Shape_Leng": 43.999999998100002, "Shape_Area": 120.99999999000001 }, "geometry": { "type": "MultiPolygon", "coordinates": [ [ [ [ 110.378171562202496, -7.789867331609212 ], [ 110.378171708959968, -7.789767835414839 ], [ 110.37827147185169, -7.789767981767285 ], [ 110.378271325117751, -7.789867477963551 ], [ 110.378171562202496, -7.789867331609212 ] ] ] ] } },
{ "type": "Feature", "properties": { "OBJECTID": 63, "Id": 63, "gridcode": 3, "Shape_Leng": 3997.7801530500001, "Shape_Area": 378173.07807699998 }, "geometry": { "type": "MultiPolygon", "coordinates": [ [ [ [ 110.370998876033198, -7.782991503337901 ], [ 110.375459658219853, -7.783041584470454 ], [ 110.375586713076302, -7.783794252448691 ], [ 110.374616716003601, -7.783363090937126 ], [ 110.373912281736864, -7.784181057460621 ], [ 110.373468202307137, -7.785228385057088 ], [ 110.373394721028575, -7.786123833135172 ], [ 110.373933296719187, -7.786246698269239 ], [ 110.373840826538583, -7.786332535524379 ], [ 110.373356801403531, -7.78644145304307 ], [ 110.373601005008382, -7.787254752680907 ], [ 110.374195455940054, -7.787207998717851 ], [ 110.374766406049787, -7.787537423788868 ], [ 110.374636709479674, -7.787826155424412 ], [ 110.374529243470803, -7.788017589913903 ], [ 110.37448284511845, -7.788170465818982 ], [ 110.374349666765923, -7.78810419749631 ], [ 110.373969022953787, -7.788036786455378 ], [ 110.374113984435155, -7.7883339348958 ], [ 110.374315660316398, -7.788436060899341 ], [ 110.37444447925796, -7.788690958382443 ], [ 110.37448284511845, -7.788170465818982 ], [ 110.374595323771501, -7.788257317601561 ], [ 110.375022380360704, -7.788810805327996 ], [ 110.375139707978605, -7.788128091610234 ], [ 110.375715756301716, -7.788344901898104 ], [ 110.375991556738981, -7.788557864266041 ], [ 110.376078308322661, -7.788670298858926 ], [ 110.375995435763187, -7.788765946082361 ], [ 110.37452791514913, -7.788913055096335 ], [ 110.373836837588669, -7.789018930815916 ], [ 110.372568920345273, -7.789161994808445 ], [ 110.371641467034337, -7.789413667276665 ], [ 110.371388281934344, -7.789459340170807 ], [ 110.371288519247273, -7.789459192204103 ], [ 110.371288370871326, -7.789558688268646 ], [ 110.370632386492247, -7.78967702189162 ], [ 110.370144432621643, -7.789809430386374 ], [ 110.369548785587511, -7.789916878443361 ], [ 110.369292608051666, -7.789895965271566 ], [ 110.369041382588918, -7.789915721059524 ], [ 110.36893196221132, -7.789432026100543 ], [ 110.368555850644213, -7.788757349201519 ], [ 110.36806681841783, -7.787124107809383 ], [ 110.368560703480952, -7.786431602147039 ], [ 110.36904210753957, -7.785667596892792 ], [ 110.369855910859116, -7.785086628647856 ], [ 110.370666227591627, -7.784455652548376 ], [ 110.371072648711419, -7.783892923783301 ], [ 110.370998876033198, -7.782991503337901 ] ], [ [ 110.372387093778272, -7.788664849845514 ], [ 110.372337574062783, -7.78806320613545 ], [ 110.372130674979417, -7.787523962432937 ], [ 110.371843393384509, -7.787802334829025 ], [ 110.372179774675018, -7.788602262008506 ], [ 110.372387093778272, -7.788664849845514 ] ] ] ] } },
{ "type": "Feature", "properties": { "OBJECTID": 64, "Id": 64, "gridcode": 3, "Shape_Leng": 227.851216075, "Shape_Area": 2887.0388036099998 }, "geometry": { "type": "MultiPolygon", "coordinates": [ [ [ [ 110.387548417333477, -7.790477964506924 ], [ 110.386808492100457, -7.79043008552504 ], [ 110.386914716102581, -7.790037522599649 ], [ 110.38749760244427, -7.790161573149919 ], [ 110.387548417333477, -7.790477964506924 ] ] ] ] } },
{ "type": "Feature", "properties": { "OBJECTID": 65, "Id": 65, "gridcode": 4, "Shape_Leng": 43.9999999944, "Shape_Area": 120.999999969 }, "geometry": { "type": "MultiPolygon", "coordinates": [ [ [ [ 110.395828772432068, -7.790489849759367 ], [ 110.395828915033974, -7.790390353237764 ], [ 110.395928678404061, -7.790390495445546 ], [ 110.395928535825718, -7.790489991968989 ], [ 110.395828772432068, -7.790489849759367 ] ] ] ] } },
{ "type": "Feature", "properties": { "OBJECTID": 66, "Id": 66, "gridcode": 4, "Shape_Leng": 774.886237886, "Shape_Area": 37669.16847 }, "geometry": { "type": "MultiPolygon", "coordinates": [ [ [ [ 110.396526973788028, -7.790590341267688 ], [ 110.396182302227402, -7.790038918452692 ], [ 110.395900420976901, -7.789641223671948 ], [ 110.395623384560793, -7.78940249265664 ], [ 110.395485100572287, -7.789241950815366 ], [ 110.395197187807199, -7.788993848898087 ], [ 110.395892549171421, -7.788560853990536 ], [ 110.396031292478057, -7.788400707025184 ], [ 110.396925534248282, -7.788258238484319 ], [ 110.397084398731778, -7.788346954262204 ], [ 110.397172543556678, -7.788756073596637 ], [ 110.397362200946461, -7.789078907643229 ], [ 110.397455265005064, -7.789833895080294 ], [ 110.396940572485718, -7.790473040277419 ], [ 110.396526973788028, -7.790590341267688 ] ] ] ] } },
{ "type": "Feature", "properties": { "OBJECTID": 67, "Id": 67, "gridcode": 3, "Shape_Leng": 43.999999998100002, "Shape_Area": 120.99999999000001 }, "geometry": { "type": "MultiPolygon", "coordinates": [ [ [ [ 110.377970861871688, -7.790663008337822 ], [ 110.377971008691702, -7.790563512151005 ], [ 110.378070771767909, -7.790563658565543 ], [ 110.378070624971429, -7.790663154754256 ], [ 110.377970861871688, -7.790663008337822 ] ] ] ] } },
{ "type": "Feature", "properties": { "OBJECTID": 68, "Id": 68, "gridcode": 3, "Shape_Leng": 8961.3254984499999, "Shape_Area": 592461.32946100004 }, "geometry": { "type": "MultiPolygon", "coordinates": [ [ [ [ 110.395328670930965, -7.791384606949975 ], [ 110.395277860471197, -7.791335780509236 ], [ 110.395181239075939, -7.790537680085773 ], [ 110.395073573649924, -7.790328506808755 ], [ 110.394383372531195, -7.790341567473744 ], [ 110.393971301629747, -7.789912595799415 ], [ 110.394001819649588, -7.788519139109857 ], [ 110.391093523877245, -7.788742875943158 ], [ 110.38959494539391, -7.788838228448393 ], [ 110.387591817882651, -7.78902089937221 ], [ 110.386120226998159, -7.789233197829729 ], [ 110.385838774352735, -7.790782545714227 ], [ 110.384676316268667, -7.790583061242502 ], [ 110.383010554681235, -7.790221646781831 ], [ 110.382509887917621, -7.790123409972204 ], [ 110.381081998587348, -7.789813598080642 ], [ 110.38116488864776, -7.78957322327182 ], [ 110.381286571861764, -7.789539340195998 ], [ 110.38119921862689, -7.789451965010606 ], [ 110.38116488864776, -7.78957322327182 ], [ 110.38081016889096, -7.78962104456861 ], [ 110.380948237615996, -7.789749005434826 ], [ 110.380418368362655, -7.789708657914544 ], [ 110.380618165085195, -7.789524572688899 ], [ 110.380739896399334, -7.789268296978661 ], [ 110.380688969769281, -7.787937618333427 ], [ 110.381305986491824, -7.787743781801656 ], [ 110.382741998365674, -7.787517781231257 ], [ 110.382912117488601, -7.787335203135454 ], [ 110.383525486591736, -7.787240391381405 ], [ 110.383710199588876, -7.787439798709692 ], [ 110.384774028956684, -7.787399292774726 ], [ 110.385108168627951, -7.786884871190375 ], [ 110.385798346426498, -7.787414305071771 ], [ 110.387205271521097, -7.787639919804212 ], [ 110.387400922259047, -7.787689618364912 ], [ 110.386571512552663, -7.788153682757276 ], [ 110.386244967678195, -7.788504150480185 ], [ 110.38692022720727, -7.788901386197632 ], [ 110.387402276447673, -7.78873366341632 ], [ 110.387577593069778, -7.788922921688511 ], [ 110.388312779566903, -7.788731929714389 ], [ 110.388280238065619, -7.787882051895335 ], [ 110.388897349542049, -7.788044271667363 ], [ 110.389382003288304, -7.78802581339783 ], [ 110.389818869556464, -7.787726924706615 ], [ 110.390095356471562, -7.787109902474927 ], [ 110.388883126368796, -7.786915518123831 ], [ 110.387501900979629, -7.78674865413318 ], [ 110.387511652269481, -7.786511953136541 ], [ 110.389850337283804, -7.786785557346373 ], [ 110.390195699270123, -7.78670870654387 ], [ 110.389958425843531, -7.785569450863862 ], [ 110.389511094252356, -7.78580470246954 ], [ 110.389403317431103, -7.785384968191396 ], [ 110.389804698376139, -7.785258864422145 ], [ 110.389599653239088, -7.78496075806081 ], [ 110.389504419270949, -7.784459343810762 ], [ 110.389001946089238, -7.784362917587586 ], [ 110.388706757046421, -7.784159705008774 ], [ 110.388014610757835, -7.783994220018638 ], [ 110.387872226940274, -7.783543427101068 ], [ 110.388109912539633, -7.782968678937529 ], [ 110.388206336018015, -7.782648403842463 ], [ 110.387899689360438, -7.782364211822975 ], [ 110.387913917883296, -7.782018830170162 ], [ 110.38811265358305, -7.781078246997622 ], [ 110.388261622339101, -7.780230843412399 ], [ 110.389069153161003, -7.780135078912447 ], [ 110.390057317510951, -7.780233428269243 ], [ 110.389975586893939, -7.780878300019151 ], [ 110.39031116779914, -7.780974514636955 ], [ 110.390654589939331, -7.781129756443838 ], [ 110.390716261740266, -7.781167777963173 ], [ 110.390824903897794, -7.78148724001419 ], [ 110.391052916487212, -7.781627811707049 ], [ 110.391201983544093, -7.782221652021112 ], [ 110.391351195615798, -7.782324716501239 ], [ 110.391391569466847, -7.782582626082573 ], [ 110.391509340138697, -7.782763568486936 ], [ 110.39159037504983, -7.783080394672732 ], [ 110.3917488069185, -7.783320253636812 ], [ 110.391616582866106, -7.783392291569863 ], [ 110.391848281719746, -7.783519389637684 ], [ 110.391914338133503, -7.783652405694639 ], [ 110.391947469820508, -7.783917518582432 ], [ 110.391947326423235, -7.784017015062623 ], [ 110.392047088213744, -7.78401715806776 ], [ 110.392046801460566, -7.784216151030369 ], [ 110.392046658081142, -7.784315647511023 ], [ 110.39214641994414, -7.784315790498247 ], [ 110.392146276586345, -7.784415286980249 ], [ 110.392145989865099, -7.784614279942826 ], [ 110.39224575180053, -7.784614422912138 ], [ 110.392245608460598, -7.784713919394599 ], [ 110.392245465118776, -7.784813415876578 ], [ 110.392345227103164, -7.784813558826122 ], [ 110.392752424473883, -7.786282298988348 ], [ 110.394540975067841, -7.786498348831166 ], [ 110.395148800724286, -7.787338552208194 ], [ 110.394851533075837, -7.788463437184282 ], [ 110.396031292478057, -7.788400707025184 ], [ 110.395892549171421, -7.788560853990536 ], [ 110.395197187807199, -7.788993848898087 ], [ 110.395485100572287, -7.789241950815366 ], [ 110.395623384560793, -7.78940249265664 ], [ 110.395900420976901, -7.789641223671948 ], [ 110.396182302227402, -7.790038918452692 ], [ 110.396526973788028, -7.790590341267688 ], [ 110.396460101162972, -7.790698234064746 ], [ 110.396267752986944, -7.79075768606522 ], [ 110.396161595343926, -7.790445556944244 ], [ 110.395928678404061, -7.790390495445546 ], [ 110.395828915033974, -7.790390353237764 ], [ 110.395828772432068, -7.790489849759367 ], [ 110.395828629828301, -7.79058934628057 ], [ 110.395329812770527, -7.790588634871053 ], [ 110.395328670930965, -7.791384606949975 ] ], [ [ 110.392939932553375, -7.787500821216174 ], [ 110.393014372634283, -7.787375996721653 ], [ 110.393274077212595, -7.787222949883111 ], [ 110.392949323905569, -7.787065816759693 ], [ 110.392803155570562, -7.787419687126408 ], [ 110.392939932553375, -7.787500821216174 ] ], [ [ 110.384357593061353, -7.789378879620034 ], [ 110.384404745716267, -7.789326401805718 ], [ 110.38516389889682, -7.789226259685543 ], [ 110.385394444466968, -7.788244483147829 ], [ 110.383459058075886, -7.78835670957402 ], [ 110.381926686109338, -7.788557649185207 ], [ 110.381617454630089, -7.789009786020205 ], [ 110.383123869562908, -7.789326718223076 ], [ 110.384357593061353, -7.789378879620034 ] ], [ [ 110.381863229005418, -7.789574242289103 ], [ 110.381829254944464, -7.789452884344505 ], [ 110.38174164571366, -7.78954000423625 ], [ 110.381863229005418, -7.789574242289103 ] ] ] ] } },
{ "type": "Feature", "properties": { "OBJECTID": 69, "Id": 69, "gridcode": 3, "Shape_Leng": 306.57848975500002, "Shape_Area": 6008.6015797700002 }, "geometry": { "type": "MultiPolygon", "coordinates": [ [ [ [ 110.382059691890007, -7.791663954772859 ], [ 110.381317058326786, -7.791612623429477 ], [ 110.381475302987937, -7.791074276093661 ], [ 110.381675369420094, -7.79082585269484 ], [ 110.382141023604731, -7.791022345701973 ], [ 110.382059691890007, -7.791663954772859 ] ] ] ] } },
{ "type": "Feature", "properties": { "OBJECTID": 70, "Id": 70, "gridcode": 3, "Shape_Leng": 94.205950820200002, "Shape_Area": 425.26876831099997 }, "geometry": { "type": "MultiPolygon", "coordinates": [ [ [ [ 110.394628610847604, -7.792577567794887 ], [ 110.394329319262155, -7.792577140063772 ], [ 110.394479300014538, -7.792344225864339 ], [ 110.394628610847604, -7.792577567794887 ] ] ] ] } },
{ "type": "Feature", "properties": { "OBJECTID": 71, "Id": 71, "gridcode": 3, "Shape_Leng": 374.0, "Shape_Area": 8470.0 }, "geometry": { "type": "MultiPolygon", "coordinates": [ [ [ [ 110.377966750126404, -7.79344890137844 ], [ 110.377967778204791, -7.792752428152743 ], [ 110.378965414234145, -7.792753891657502 ], [ 110.378964387804359, -7.793450365015564 ], [ 110.377966750126404, -7.79344890137844 ] ] ] ] } },
{ "type": "Feature", "properties": { "OBJECTID": 72, "Id": 72, "gridcode": 3, "Shape_Leng": 929.87469770500002, "Shape_Area": 29901.406921199999 }, "geometry": { "type": "MultiPolygon", "coordinates": [ [ [ [ 110.380161553272629, -7.793452118279497 ], [ 110.379908501757228, -7.793405699593132 ], [ 110.379811001163802, -7.792112358390478 ], [ 110.379519074500081, -7.791905283414979 ], [ 110.378820887013049, -7.791798129537588 ], [ 110.378922339682561, -7.790729317268009 ], [ 110.379479823040839, -7.79042017920847 ], [ 110.37972065120907, -7.790512628501412 ], [ 110.37992608219254, -7.790627332717341 ], [ 110.380351694324375, -7.790593853530726 ], [ 110.380656200699462, -7.790729899303535 ], [ 110.380128724289065, -7.791973941864207 ], [ 110.380078017882894, -7.792591949192379 ], [ 110.380161553272629, -7.793452118279497 ] ] ] ] } },
{ "type": "Feature", "properties": { "OBJECTID": 73, "Id": 73, "gridcode": 3, "Shape_Leng": 175.72625238699999, "Shape_Area": 1019.55893127 }, "geometry": { "type": "MultiPolygon", "coordinates": [ [ [ [ 110.391335110945832, -7.793468318964312 ], [ 110.391793242876091, -7.793428339314698 ], [ 110.392033602645881, -7.793369825286173 ], [ 110.391915374436422, -7.793602073540224 ], [ 110.39136852998594, -7.793534438958716 ], [ 110.391335110945832, -7.793468318964312 ] ] ] ] } },
{ "type": "Feature", "properties": { "OBJECTID": 74, "Id": 74, "gridcode": 3, "Shape_Leng": 41.501399255099997, "Shape_Area": 82.843515810100001 }, "geometry": { "type": "MultiPolygon", "coordinates": [ [ [ [ 110.382954211931548, -7.793953677407194 ], [ 110.382832627291066, -7.793919439568447 ], [ 110.382920237295835, -7.793832319522696 ], [ 110.382954211931548, -7.793953677407194 ] ] ] ] } },
{ "type": "Feature", "properties": { "OBJECTID": 75, "Id": 75, "gridcode": 3, "Shape_Leng": 43.999999998100002, "Shape_Area": 120.99999999000001 }, "geometry": { "type": "MultiPolygon", "coordinates": [ [ [ [ 110.384251143731547, -7.793955564531086 ], [ 110.384251289131441, -7.79385606824112 ], [ 110.384351053105902, -7.793856213238186 ], [ 110.384350907729555, -7.793955709530027 ], [ 110.384251143731547, -7.793955564531086 ] ] ] ] } },
{ "type": "Feature", "properties": { "OBJECTID": 76, "Id": 76, "gridcode": 3, "Shape_Leng": 714.02767550199997, "Shape_Area": 25247.134417599998 }, "geometry": { "type": "MultiPolygon", "coordinates": [ [ [ [ 110.385248783797778, -7.793957013463369 ], [ 110.384749963740759, -7.793956289290866 ], [ 110.384750109022889, -7.793856792991536 ], [ 110.384679601891818, -7.793493783987528 ], [ 110.384204706131612, -7.793263154046741 ], [ 110.384622468759545, -7.792167049451596 ], [ 110.384834131391187, -7.791519741269865 ], [ 110.385626920326885, -7.791685735710596 ], [ 110.385313463020353, -7.793371232278679 ], [ 110.385248783797778, -7.793957013463369 ] ] ] ] } },
{ "type": "Feature", "properties": { "OBJECTID": 77, "Id": 77, "gridcode": 3, "Shape_Leng": 41.501399257899998, "Shape_Area": 82.843515821599993 }, "geometry": { "type": "MultiPolygon", "coordinates": [ [ [ [ 110.382954211931548, -7.793953677407194 ], [ 110.383075796594341, -7.793987915212479 ], [ 110.382988186584299, -7.794075035289807 ], [ 110.382954211931548, -7.793953677407194 ] ] ] ] } },
{ "type": "Feature", "properties": { "OBJECTID": 78, "Id": 78, "gridcode": 3, "Shape_Leng": 65.999999996300005, "Shape_Area": 241.99999998000001 }, "geometry": { "type": "MultiPolygon", "coordinates": [ [ [ [ 110.385647694805726, -7.794057088694224 ], [ 110.385448166714809, -7.794056799279888 ], [ 110.385448311833969, -7.793957302967931 ], [ 110.385647839877763, -7.793957592378527 ], [ 110.385647694805726, -7.794057088694224 ] ] ] ] } },
{ "type": "Feature", "properties": { "OBJECTID": 79, "Id": 79, "gridcode": 4, "Shape_Leng": 43.9999999944, "Shape_Area": 120.999999969 }, "geometry": { "type": "MultiPolygon", "coordinates": [ [ [ [ 110.38634589827501, -7.794157597232706 ], [ 110.38624613419168, -7.794157452699858 ], [ 110.386246279124322, -7.794057956373438 ], [ 110.386346043184076, -7.794058100904422 ], [ 110.38634589827501, -7.794157597232706 ] ] ] ] } },
{ "type": "Feature", "properties": { "OBJECTID": 80, "Id": 80, "gridcode": 3, "Shape_Leng": 661.85330969699999, "Shape_Area": 10823.3201751 }, "geometry": { "type": "MultiPolygon", "coordinates": [ [ [ [ 110.38634589827501, -7.794157597232706 ], [ 110.386346043184076, -7.794058100904422 ], [ 110.386246279124322, -7.794057956373438 ], [ 110.386146515066443, -7.794057811818965 ], [ 110.38619664951085, -7.793541846380375 ], [ 110.386296208494954, -7.793187276096745 ], [ 110.386585745160829, -7.79389574596049 ], [ 110.386890556207561, -7.79242360150544 ], [ 110.387202712298361, -7.792510739103938 ], [ 110.387245221995855, -7.793163933499185 ], [ 110.387142248562171, -7.793227006830105 ], [ 110.386840294829838, -7.794117617875364 ], [ 110.38634589827501, -7.794157597232706 ] ] ] ] } },
{ "type": "Feature", "properties": { "OBJECTID": 81, "Id": 81, "gridcode": 3, "Shape_Leng": 44.000000003700002, "Shape_Area": 121.00000002 }, "geometry": { "type": "MultiPolygon", "coordinates": [ [ [ [ 110.38425070752038, -7.794254053398177 ], [ 110.384150943453605, -7.794253908370127 ], [ 110.384151088882803, -7.794154412083424 ], [ 110.384250852926016, -7.794154557109601 ], [ 110.38425070752038, -7.794254053398177 ] ] ] ] } },
{ "type": "Feature", "properties": { "OBJECTID": 82, "Id": 82, "gridcode": 2, "Shape_Leng": 41.248117270999998, "Shape_Area": 77.487007141099994 }, "geometry": { "type": "MultiPolygon", "coordinates": [ [ [ [ 110.384150943453605, -7.794253908370127 ], [ 110.38425070752038, -7.794254053398177 ], [ 110.384200639236681, -7.794381413440946 ], [ 110.384150943453605, -7.794253908370127 ] ] ] ] } },
{ "type": "Feature", "properties": { "OBJECTID": 83, "Id": 83, "gridcode": 3, "Shape_Leng": 43.999999998100002, "Shape_Area": 120.99999999000001 }, "geometry": { "type": "MultiPolygon", "coordinates": [ [ [ [ 110.381255740577132, -7.795642639539551 ], [ 110.381255886716318, -7.795543143313891 ], [ 110.381355651033715, -7.795543289047678 ], [ 110.381355504918062, -7.795642785275219 ], [ 110.381255740577132, -7.795642639539551 ] ] ] ] } },
{ "type": "Feature", "properties": { "OBJECTID": 84, "Id": 84, "gridcode": 4, "Shape_Leng": 87.999999996300005, "Shape_Area": 362.99999993900002 }, "geometry": { "type": "MultiPolygon", "coordinates": [ [ [ [ 110.380856536997186, -7.79574155257953 ], [ 110.380856683232565, -7.795642056361905 ], [ 110.381155976238091, -7.795642493780384 ], [ 110.381155830073396, -7.795741990003655 ], [ 110.380856536997186, -7.79574155257953 ] ] ] ] } },
{ "type": "Feature", "properties": { "OBJECTID": 85, "Id": 85, "gridcode": 3, "Shape_Leng": 273.05546412899997, "Shape_Area": 4185.0903849699998 }, "geometry": { "type": "MultiPolygon", "coordinates": [ [ [ [ 110.38295158889386, -7.795744610107572 ], [ 110.382406302292608, -7.795326379867681 ], [ 110.382639753339703, -7.794809437567605 ], [ 110.382899844388902, -7.795100605697125 ], [ 110.383151846138389, -7.795247419451133 ], [ 110.38295158889386, -7.795744610107572 ] ] ] ] } },
{ "type": "Feature", "properties": { "OBJECTID": 86, "Id": 86, "gridcode": 3, "Shape_Leng": 44.0, "Shape_Area": 121.0 }, "geometry": { "type": "MultiPolygon", "coordinates": [ [ [ [ 110.381953653069715, -7.795942147909492 ], [ 110.381853888646575, -7.795942002309157 ], [ 110.381854034650175, -7.795842506073614 ], [ 110.381953799049782, -7.79584265167207 ], [ 110.381953653069715, -7.795942147909492 ] ] ] ] } },
{ "type": "Feature", "properties": { "OBJECTID": 87, "Id": 87, "gridcode": 3, "Shape_Leng": 43.999999998100002, "Shape_Area": 120.99999999000001 }, "geometry": { "type": "MultiPolygon", "coordinates": [ [ [ [ 110.382153035986946, -7.796041935280348 ], [ 110.382053271536392, -7.796041789725129 ], [ 110.382053417494802, -7.79594229348633 ], [ 110.382153181921808, -7.795942439039669 ], [ 110.382153035986946, -7.796041935280348 ] ] ] ] } },
{ "type": "Feature", "properties": { "OBJECTID": 88, "Id": 88, "gridcode": 4, "Shape_Leng": 41.248117269700003, "Shape_Area": 77.487007134600006 }, "geometry": { "type": "MultiPolygon", "coordinates": [ [ [ [ 110.380556805008609, -7.796039603577132 ], [ 110.380656569430315, -7.796039749484814 ], [ 110.380606499838663, -7.796167108990319 ], [ 110.380556805008609, -7.796039603577132 ] ] ] ] } },
{ "type": "Feature", "properties": { "OBJECTID": 89, "Id": 89, "gridcode": 3, "Shape_Leng": 44.000000001899998, "Shape_Area": 121.00000000999999 }, "geometry": { "type": "MultiPolygon", "coordinates": [ [ [ [ 110.382352273112602, -7.796241218807864 ], [ 110.382252508611089, -7.796241073295879 ], [ 110.382252654526226, -7.796141577054209 ], [ 110.382352419004178, -7.796141722564314 ], [ 110.382352273112602, -7.796241218807864 ] ] ] ] } },
{ "type": "Feature", "properties": { "OBJECTID": 90, "Id": 90, "gridcode": 3, "Shape_Leng": 65.999999996300005, "Shape_Area": 241.99999998000001 }, "geometry": { "type": "MultiPolygon", "coordinates": [ [ [ [ 110.382650837495476, -7.796739136441595 ], [ 110.38265112915451, -7.796540143947513 ], [ 110.382750893734396, -7.796540289371138 ], [ 110.382750602122485, -7.796739281868976 ], [ 110.382650837495476, -7.796739136441595 ] ] ] ] } },
{ "type": "Feature", "properties": { "OBJECTID": 91, "Id": 91, "gridcode": 3, "Shape_Leng": 66.000000003699995, "Shape_Area": 242.00000004099999 }, "geometry": { "type": "MultiPolygon", "coordinates": [ [ [ [ 110.382351397722886, -7.796838196259204 ], [ 110.382351689527141, -7.796639203777301 ], [ 110.382451454124833, -7.796639349273303 ], [ 110.38245116236773, -7.796838341758964 ], [ 110.382351397722886, -7.796838196259204 ] ] ] ] } },
{ "type": "Feature", "properties": { "OBJECTID": 92, "Id": 92, "gridcode": 3, "Shape_Leng": 1251.72865219, "Shape_Area": 88332.792083399996 }, "geometry": { "type": "MultiPolygon", "coordinates": [ [ [ [ 110.38055548811559, -7.796935069451435 ], [ 110.37900730499257, -7.796884949957334 ], [ 110.377762226141229, -7.79683147786692 ], [ 110.377812340080652, -7.79538695785355 ], [ 110.377865664203014, -7.794344220410663 ], [ 110.380353143155347, -7.794389070239074 ], [ 110.380652407990482, -7.794501247062312 ], [ 110.380934176349427, -7.795306686477362 ], [ 110.381155976238091, -7.795642493780384 ], [ 110.380856683232565, -7.795642056361905 ], [ 110.380856536997186, -7.79574155257953 ], [ 110.380657008289319, -7.79574126084596 ], [ 110.380656569430315, -7.796039749484814 ], [ 110.380556805008609, -7.796039603577132 ], [ 110.380395830909023, -7.796163145011651 ], [ 110.380481342708762, -7.796746156751771 ], [ 110.38055548811559, -7.796935069451435 ] ] ] ] } },
{ "type": "Feature", "properties": { "OBJECTID": 93, "Id": 93, "gridcode": 3, "Shape_Leng": 43.9999999944, "Shape_Area": 120.999999969 }, "geometry": { "type": "MultiPolygon", "coordinates": [ [ [ [ 110.38225134122095, -7.797037043212181 ], [ 110.382251487151436, -7.796937546974315 ], [ 110.38235125181788, -7.796937692499455 ], [ 110.382351105910956, -7.797037188739199 ], [ 110.38225134122095, -7.797037043212181 ] ] ] ] } },
{ "type": "Feature", "properties": { "OBJECTID": 94, "Id": 94, "gridcode": 2, "Shape_Leng": 27242.212255800001, "Shape_Area": 2419814.9566199998 }, "geometry": { "type": "MultiPolygon", "coordinates": [ [ [ [ 110.382450578830444, -7.797236326724658 ], [ 110.382350814091353, -7.797236181217382 ], [ 110.382350960002114, -7.797136684978526 ], [ 110.382251195288532, -7.79713653944963 ], [ 110.38225134122095, -7.797037043212181 ], [ 110.382351105910956, -7.797037188739199 ], [ 110.38235125181788, -7.796937692499455 ], [ 110.382351397722886, -7.796838196259204 ], [ 110.38245116236773, -7.796838341758964 ], [ 110.382451454124833, -7.796639349273303 ], [ 110.382418328093863, -7.796374236187708 ], [ 110.382352273112602, -7.796241218807864 ], [ 110.382352419004178, -7.796141722564314 ], [ 110.382252654526226, -7.796141577054209 ], [ 110.382252800439431, -7.796042080812069 ], [ 110.382153035986946, -7.796041935280348 ], [ 110.382153181921808, -7.795942439039669 ], [ 110.382053417494802, -7.79594229348633 ], [ 110.381953653069715, -7.795942147909492 ], [ 110.381953799049782, -7.79584265167207 ], [ 110.381854034650175, -7.795842506073614 ], [ 110.381595694153162, -7.795701994959329 ], [ 110.381355651033715, -7.795543289047678 ], [ 110.381255886716318, -7.795543143313891 ], [ 110.381255740577132, -7.795642639539551 ], [ 110.381155976238091, -7.795642493780384 ], [ 110.380934176349427, -7.795306686477362 ], [ 110.380652407990482, -7.794501247062312 ], [ 110.380353143155347, -7.794389070239074 ], [ 110.377865664203014, -7.794344220410663 ], [ 110.377866986369227, -7.793448754885534 ], [ 110.377966750126404, -7.79344890137844 ], [ 110.378964387804359, -7.793450365015564 ], [ 110.378965414234145, -7.792753891657502 ], [ 110.377967778204791, -7.792752428152743 ], [ 110.377911645704003, -7.791928014719396 ], [ 110.377970861871688, -7.790663008337822 ], [ 110.378070624971429, -7.790663154754256 ], [ 110.378070771767909, -7.790563658565543 ], [ 110.378114754061599, -7.790209080423184 ], [ 110.378171562202496, -7.789867331609212 ], [ 110.378271325117751, -7.789867477963551 ], [ 110.37827147185169, -7.789767981767285 ], [ 110.378372995119378, -7.788574173682049 ], [ 110.37847275773251, -7.788574319964845 ], [ 110.378472904394258, -7.788474823758687 ], [ 110.37876077560405, -7.788419213707393 ], [ 110.379019235697001, -7.787628816193519 ], [ 110.379138247995371, -7.78763141201877 ], [ 110.380154017394574, -7.787979825734038 ], [ 110.380518963033012, -7.787168837348985 ], [ 110.379209290332, -7.78669492852452 ], [ 110.379234846646114, -7.785529818619039 ], [ 110.380082389621876, -7.785548309691428 ], [ 110.380321095296949, -7.78604086138595 ], [ 110.380731445475661, -7.786337959924447 ], [ 110.381119593300653, -7.786139254310648 ], [ 110.381717453281055, -7.786255510119612 ], [ 110.381510698515484, -7.786855083469844 ], [ 110.381921468387006, -7.787235165415009 ], [ 110.382131658962663, -7.786804671512937 ], [ 110.382316048935607, -7.786240774701799 ], [ 110.382938769445403, -7.786140602127608 ], [ 110.383214137656921, -7.786146607938226 ], [ 110.383413883088167, -7.785934167228713 ], [ 110.383214923769216, -7.785547597856689 ], [ 110.383074090032636, -7.785257002258025 ], [ 110.383607790305277, -7.785128064357358 ], [ 110.383216087599749, -7.784751627364631 ], [ 110.383089977199418, -7.784620336292521 ], [ 110.382481118225328, -7.784865614363643 ], [ 110.38192015802224, -7.785446216207421 ], [ 110.381616698359579, -7.785543279947844 ], [ 110.381623246356085, -7.785244717275362 ], [ 110.381411661610144, -7.785248715063003 ], [ 110.381186315865662, -7.785481949352332 ], [ 110.381022741561466, -7.785144427482511 ], [ 110.38081005713174, -7.784830511649041 ], [ 110.379519075277372, -7.784545901187339 ], [ 110.379542112490782, -7.78349559788862 ], [ 110.380129581418231, -7.783353674282415 ], [ 110.38012411750428, -7.783066021342336 ], [ 110.379269753752226, -7.782954933602398 ], [ 110.379129021744973, -7.783949692214678 ], [ 110.379026388788645, -7.78454453032088 ], [ 110.378927154966888, -7.78554133982611 ], [ 110.378796160583335, -7.786426276237528 ], [ 110.378598942329788, -7.787569298957979 ], [ 110.37847334436789, -7.78817633513752 ], [ 110.378020635388367, -7.788221719538106 ], [ 110.376794565354132, -7.788598497368175 ], [ 110.376078308322661, -7.788670298858926 ], [ 110.375991556738981, -7.788557864266041 ], [ 110.375715756301716, -7.788344901898104 ], [ 110.375139707978605, -7.788128091610234 ], [ 110.375022380360704, -7.788810805327996 ], [ 110.374595323771501, -7.788257317601561 ], [ 110.37448284511845, -7.788170465818982 ], [ 110.374529243470803, -7.788017589913903 ], [ 110.374636709479674, -7.787826155424412 ], [ 110.374766406049787, -7.787537423788868 ], [ 110.374195455940054, -7.787207998717851 ], [ 110.373601005008382, -7.787254752680907 ], [ 110.373356801403531, -7.78644145304307 ], [ 110.373840826538583, -7.786332535524379 ], [ 110.373933296719187, -7.786246698269239 ], [ 110.373394721028575, -7.786123833135172 ], [ 110.373468202307137, -7.785228385057088 ], [ 110.373912281736864, -7.784181057460621 ], [ 110.374616716003601, -7.783363090937126 ], [ 110.375586713076302, -7.783794252448691 ], [ 110.375620684974422, -7.783915610747946 ], [ 110.37570829410889, -7.783828492105729 ], [ 110.375586713076302, -7.783794252448691 ], [ 110.375459658219853, -7.783041584470454 ], [ 110.370998876033198, -7.782991503337901 ], [ 110.371066878471012, -7.782595824094979 ], [ 110.371199139671845, -7.782494318667661 ], [ 110.371951125721822, -7.782449384284379 ], [ 110.372273990045372, -7.780911750552216 ], [ 110.372989139393042, -7.78097012507132 ], [ 110.372583743325734, -7.780620738249671 ], [ 110.372353288254104, -7.780353156618783 ], [ 110.372178611914222, -7.780202612221817 ], [ 110.371644357254908, -7.779511733392829 ], [ 110.371660787035808, -7.779311524678205 ], [ 110.372671222165138, -7.779469390026287 ], [ 110.372947535842982, -7.778264611546867 ], [ 110.373083767717659, -7.777771026212895 ], [ 110.372146496323097, -7.77764730675144 ], [ 110.371953435461279, -7.778283425230027 ], [ 110.371758307001727, -7.778660838390305 ], [ 110.371659110828887, -7.777566231574009 ], [ 110.371502748063691, -7.776698770436328 ], [ 110.372047334428146, -7.775728659193089 ], [ 110.372107347811522, -7.775530919483982 ], [ 110.372658103579241, -7.775600375407961 ], [ 110.373459831243807, -7.775389176144125 ], [ 110.374147422261416, -7.775180190606655 ], [ 110.374402404213768, -7.775136321557285 ], [ 110.375499757290541, -7.775137936881916 ], [ 110.37549828612471, -7.776132898981041 ], [ 110.375498138997457, -7.776232395188382 ], [ 110.37559789863819, -7.77623254191637 ], [ 110.375779464462937, -7.776553945863808 ], [ 110.376395388151423, -7.776631699789558 ], [ 110.376395241225978, -7.776731196011657 ], [ 110.376694520558829, -7.77673163552097 ], [ 110.376894040123759, -7.776731928409983 ], [ 110.376836642751016, -7.777184701882314 ], [ 110.37739876740433, -7.777345889678439 ], [ 110.377491865501185, -7.777230287722121 ], [ 110.37768322629401, -7.777283736638547 ], [ 110.378146370326192, -7.777473583086061 ], [ 110.378189745395247, -7.777529799935944 ], [ 110.378059396356321, -7.777590132981332 ], [ 110.378389118921362, -7.777629588407803 ], [ 110.378647446839238, -7.777770101017931 ], [ 110.378887479992571, -7.777928807340135 ], [ 110.37888733362955, -7.7780283036035 ], [ 110.378987093759093, -7.778028449568641 ], [ 110.378986947417644, -7.778127945833395 ], [ 110.379086707572611, -7.778128091776984 ], [ 110.379485748211835, -7.778128675316906 ], [ 110.379439206745118, -7.778381048335094 ], [ 110.379039228027494, -7.779018098745449 ], [ 110.37913231062123, -7.779077603210514 ], [ 110.379235337654578, -7.779069498346504 ], [ 110.379783567071343, -7.779124075498553 ], [ 110.379915526855896, -7.779225969610628 ], [ 110.379982357226979, -7.779621848412654 ], [ 110.379926455449251, -7.779964500985044 ], [ 110.37983644501216, -7.780839625305608 ], [ 110.380315167520351, -7.78122311277314 ], [ 110.380209076958295, -7.782063718747553 ], [ 110.380960374169206, -7.782154933494897 ], [ 110.38081890487517, -7.781658075786114 ], [ 110.381145583113167, -7.78156543688826 ], [ 110.381106917225637, -7.781251663474676 ], [ 110.381337611671398, -7.781067966443303 ], [ 110.38102991797966, -7.780646568206659 ], [ 110.380979233052415, -7.780120786202315 ], [ 110.381495626163115, -7.780158638572236 ], [ 110.381610922089465, -7.780386772136229 ], [ 110.381809172024305, -7.780453910222021 ], [ 110.38187678769242, -7.780321087588391 ], [ 110.381976548420411, -7.780321232893503 ], [ 110.381976694098967, -7.780221736582472 ], [ 110.38206280016388, -7.780132615177526 ], [ 110.383108910754672, -7.780286634767058 ], [ 110.383822494703949, -7.78027314770396 ], [ 110.385168892728174, -7.780325870275752 ], [ 110.385120548482107, -7.780576438283447 ], [ 110.384901423262505, -7.781318944617968 ], [ 110.384322364379472, -7.781852489611158 ], [ 110.384220506120826, -7.782079412432099 ], [ 110.384617672505968, -7.782064289037495 ], [ 110.386920835985904, -7.782158675179335 ], [ 110.387190102257392, -7.780763031219214 ], [ 110.387264014176267, -7.780229404097904 ], [ 110.387558190857732, -7.780114553513226 ], [ 110.388261622339101, -7.780230843412399 ], [ 110.38811265358305, -7.781078246997622 ], [ 110.387913917883296, -7.782018830170162 ], [ 110.387899689360438, -7.782364211822975 ], [ 110.388206336018015, -7.782648403842463 ], [ 110.388109912539633, -7.782968678937529 ], [ 110.387872226940274, -7.783543427101068 ], [ 110.388014610757835, -7.783994220018638 ], [ 110.388706757046421, -7.784159705008774 ], [ 110.389001946089238, -7.784362917587586 ], [ 110.389504419270949, -7.784459343810762 ], [ 110.389599653239088, -7.78496075806081 ], [ 110.389804698376139, -7.785258864422145 ], [ 110.389403317431103, -7.785384968191396 ], [ 110.389511094252356, -7.78580470246954 ], [ 110.389958425843531, -7.785569450863862 ], [ 110.390195699270123, -7.78670870654387 ], [ 110.389850337283804, -7.786785557346373 ], [ 110.387511652269481, -7.786511953136541 ], [ 110.387501900979629, -7.78674865413318 ], [ 110.388883126368796, -7.786915518123831 ], [ 110.390095356471562, -7.787109902474927 ], [ 110.389818869556464, -7.787726924706615 ], [ 110.389382003288304, -7.78802581339783 ], [ 110.388897349542049, -7.788044271667363 ], [ 110.388280238065619, -7.787882051895335 ], [ 110.388312779566903, -7.788731929714389 ], [ 110.387577593069778, -7.788922921688511 ], [ 110.387402276447673, -7.78873366341632 ], [ 110.38692022720727, -7.788901386197632 ], [ 110.386244967678195, -7.788504150480185 ], [ 110.386571512552663, -7.788153682757276 ], [ 110.387400922259047, -7.787689618364912 ], [ 110.387205271521097, -7.787639919804212 ], [ 110.385798346426498, -7.787414305071771 ], [ 110.385108168627951, -7.786884871190375 ], [ 110.384774028956684, -7.787399292774726 ], [ 110.383710199588876, -7.787439798709692 ], [ 110.383525486591736, -7.787240391381405 ], [ 110.382912117488601, -7.787335203135454 ], [ 110.382741998365674, -7.787517781231257 ], [ 110.381305986491824, -7.787743781801656 ], [ 110.380688969769281, -7.787937618333427 ], [ 110.380739896399334, -7.789268296978661 ], [ 110.380618165085195, -7.789524572688899 ], [ 110.380418368362655, -7.789708657914544 ], [ 110.380948237615996, -7.789749005434826 ], [ 110.38081016889096, -7.78962104456861 ], [ 110.38116488864776, -7.78957322327182 ], [ 110.381081998587348, -7.789813598080642 ], [ 110.382509887917621, -7.790123409972204 ], [ 110.383010554681235, -7.790221646781831 ], [ 110.384676316268667, -7.790583061242502 ], [ 110.385838774352735, -7.790782545714227 ], [ 110.386120226998159, -7.789233197829729 ], [ 110.387591817882651, -7.78902089937221 ], [ 110.38959494539391, -7.788838228448393 ], [ 110.391093523877245, -7.788742875943158 ], [ 110.394001819649588, -7.788519139109857 ], [ 110.393971301629747, -7.789912595799415 ], [ 110.394383372531195, -7.790341567473744 ], [ 110.395073573649924, -7.790328506808755 ], [ 110.395181239075939, -7.790537680085773 ], [ 110.395277860471197, -7.791335780509236 ], [ 110.395328670930965, -7.791384606949975 ], [ 110.394887542280898, -7.792188890034708 ], [ 110.394781131149202, -7.792530835379911 ], [ 110.394628610847604, -7.792577567794887 ], [ 110.394479300014538, -7.792344225864339 ], [ 110.394329319262155, -7.792577140063772 ], [ 110.39313215308978, -7.792575427025463 ], [ 110.393131723246967, -7.792873916408817 ], [ 110.392034320383658, -7.792872343091604 ], [ 110.392033602645881, -7.793369825286173 ], [ 110.391793242876091, -7.793428339314698 ], [ 110.391335110945832, -7.793468318964312 ], [ 110.390983199205763, -7.79342086294408 ], [ 110.390880413044457, -7.793087185290902 ], [ 110.390286692431545, -7.793121621773327 ], [ 110.389688711591617, -7.79301475262109 ], [ 110.389393019138993, -7.793120084208596 ], [ 110.388988216308249, -7.793213401108272 ], [ 110.388593597467178, -7.793318197730867 ], [ 110.388459062647229, -7.793310005689285 ], [ 110.388095520292879, -7.793112303380905 ], [ 110.387245221995855, -7.793163933499185 ], [ 110.387202712298361, -7.792510739103938 ], [ 110.386890556207561, -7.79242360150544 ], [ 110.386585745160829, -7.79389574596049 ], [ 110.386296208494954, -7.793187276096745 ], [ 110.38619664951085, -7.793541846380375 ], [ 110.386146515066443, -7.794057811818965 ], [ 110.385647694805726, -7.794057088694224 ], [ 110.385647839877763, -7.793957592378527 ], [ 110.385448311833969, -7.793957302967931 ], [ 110.385248783797778, -7.793957013463369 ], [ 110.385313463020353, -7.793371232278679 ], [ 110.385626920326885, -7.791685735710596 ], [ 110.384834131391187, -7.791519741269865 ], [ 110.384622468759545, -7.792167049451596 ], [ 110.384204706131612, -7.793263154046741 ], [ 110.384679601891818, -7.793493783987528 ], [ 110.384750109022889, -7.793856792991536 ], [ 110.384351053105902, -7.793856213238186 ], [ 110.384251289131441, -7.79385606824112 ], [ 110.384251143731547, -7.793955564531086 ], [ 110.384250852926016, -7.794154557109601 ], [ 110.384151088882803, -7.794154412083424 ], [ 110.384150943453605, -7.794253908370127 ], [ 110.38400833132367, -7.794363360311886 ], [ 110.383907437204655, -7.794608197277088 ], [ 110.383302827992324, -7.794709724323281 ], [ 110.383151846138389, -7.795247419451133 ], [ 110.382899844388902, -7.795100605697125 ], [ 110.382639753339703, -7.794809437567605 ], [ 110.382406302292608, -7.795326379867681 ], [ 110.38295158889386, -7.795744610107572 ], [ 110.38280304235181, -7.796119846463374 ], [ 110.382750893734396, -7.796540289371138 ], [ 110.38265112915451, -7.796540143947513 ], [ 110.382650837495476, -7.796739136441595 ], [ 110.38261693428457, -7.797004151797909 ], [ 110.382550489435062, -7.797136975965817 ], [ 110.382450724717643, -7.797136830483923 ], [ 110.382450578830444, -7.797236326724658 ] ], [ [ 110.387548417333477, -7.790477964506924 ], [ 110.38749760244427, -7.790161573149919 ], [ 110.386914716102581, -7.790037522599649 ], [ 110.386808492100457, -7.79043008552504 ], [ 110.387548417333477, -7.790477964506924 ] ], [ [ 110.379868702828887, -7.789073846614958 ], [ 110.379922723147189, -7.789200257706916 ], [ 110.380098066981333, -7.789114511450558 ], [ 110.379868702828887, -7.789073846614958 ], [ 110.379564004911558, -7.788678952372634 ], [ 110.379126976898874, -7.789023665437472 ], [ 110.379868702828887, -7.789073846614958 ] ], [ [ 110.372904241280168, -7.77632806819166 ], [ 110.372864619007572, -7.776101900827959 ], [ 110.372774667254205, -7.776272538795531 ], [ 110.372904241280168, -7.77632806819166 ] ], [ [ 110.372604223368214, -7.776825106784497 ], [ 110.37256460123325, -7.776598939407106 ], [ 110.372474649241781, -7.776769577289052 ], [ 110.372604223368214, -7.776825106784497 ] ], [ [ 110.374296895212112, -7.779016525600915 ], [ 110.374344950252208, -7.778964951645435 ], [ 110.374710112557338, -7.778730533628223 ], [ 110.374905715817931, -7.777916861443789 ], [ 110.374734743090684, -7.777476873285665 ], [ 110.374149358828262, -7.778879782918969 ], [ 110.374296895212112, -7.779016525600915 ] ], [ [ 110.373897263879215, -7.779413921766857 ], [ 110.37371422227622, -7.779176685101461 ], [ 110.373554611054729, -7.779355347086257 ], [ 110.373897263879215, -7.779413921766857 ] ], [ [ 110.374792307111903, -7.781305672711162 ], [ 110.37490184331412, -7.780356386797135 ], [ 110.374008180707307, -7.780373258888096 ], [ 110.37343247070865, -7.780254769281168 ], [ 110.373147333496675, -7.781247839873053 ], [ 110.374792307111903, -7.781305672711162 ] ], [ [ 110.377884600289917, -7.781509210922638 ], [ 110.377928881228286, -7.781564527528141 ], [ 110.378724422617623, -7.78168119826406 ], [ 110.378826739251934, -7.781559435461364 ], [ 110.377884600289917, -7.781509210922638 ], [ 110.377850627864888, -7.781387852754797 ], [ 110.377763019684409, -7.781474971924565 ], [ 110.377884600289917, -7.781509210922638 ] ], [ [ 110.378382525645222, -7.782106919432258 ], [ 110.378357405102747, -7.781933198801431 ], [ 110.377662008215111, -7.781881561161065 ], [ 110.377459339100128, -7.782078784039252 ], [ 110.378382525645222, -7.782106919432258 ] ], [ [ 110.37459101606008, -7.78249933262241 ], [ 110.374529038561192, -7.782180191211974 ], [ 110.372846719552498, -7.782143463990184 ], [ 110.372944046001876, -7.782448188652226 ], [ 110.373045028664208, -7.782446282268261 ], [ 110.37459101606008, -7.78249933262241 ] ], [ [ 110.377877704820463, -7.786185533112 ], [ 110.377927690014388, -7.7854383880903 ], [ 110.378162295820104, -7.783949299288019 ], [ 110.377034190977412, -7.783837587682063 ], [ 110.377431670513289, -7.783547228194013 ], [ 110.37773116831039, -7.783402856151167 ], [ 110.376533964967095, -7.783446413252079 ], [ 110.376402404120185, -7.783981219514944 ], [ 110.37606056502203, -7.78430781408582 ], [ 110.376516204079849, -7.784529107416734 ], [ 110.37663150248811, -7.785242112551591 ], [ 110.377047352338636, -7.784545791754624 ], [ 110.377021562607368, -7.785721264731126 ], [ 110.377419115018085, -7.786135160417049 ], [ 110.377877704820463, -7.786185533112 ] ], [ [ 110.385961332837624, -7.784207384556657 ], [ 110.385836883557573, -7.78398016707869 ], [ 110.385726560628271, -7.784156660952392 ], [ 110.385961332837624, -7.784207384556657 ] ], [ [ 110.381970573946347, -7.784400581241245 ], [ 110.381928340106356, -7.784072684212305 ], [ 110.381836497631156, -7.784329899037087 ], [ 110.381970573946347, -7.784400581241245 ] ], [ [ 110.378578677489799, -7.784395625084064 ], [ 110.378539051721049, -7.784169458413822 ], [ 110.378449099806701, -7.784340096995666 ], [ 110.378578677489799, -7.784395625084064 ] ], [ [ 110.383765994061122, -7.784602186758736 ], [ 110.383732019728455, -7.78448082892687 ], [ 110.38364441197362, -7.784567949343833 ], [ 110.383765994061122, -7.784602186758736 ] ], [ [ 110.388653602363462, -7.785106743309156 ], [ 110.388687500273434, -7.784841726951897 ], [ 110.388834581285053, -7.784547688619901 ], [ 110.388597296277965, -7.784476257759814 ], [ 110.388520424059166, -7.785039308801241 ], [ 110.388653602363462, -7.785106743309156 ] ], [ [ 110.383566325128811, -7.784701393128445 ], [ 110.383600299425567, -7.784822750969973 ], [ 110.383687907245815, -7.784735630568036 ], [ 110.383566325128811, -7.784701393128445 ], [ 110.38353235084908, -7.784580035285037 ], [ 110.383444743034062, -7.784667155655471 ], [ 110.383566325128811, -7.784701393128445 ] ], [ [ 110.388552975030862, -7.785703577947757 ], [ 110.388507371422804, -7.785183771563301 ], [ 110.388176443196983, -7.785660321885981 ], [ 110.388552975030862, -7.785703577947757 ] ], [ [ 110.386956058214921, -7.78619875529512 ], [ 110.387002307276362, -7.786145374016549 ], [ 110.387509104931709, -7.78575551966208 ], [ 110.387901286019641, -7.785375659743258 ], [ 110.387468390201462, -7.785257977861924 ], [ 110.387096986066837, -7.78546394268509 ], [ 110.386799189917426, -7.785439644599428 ], [ 110.386358841738314, -7.785683842759666 ], [ 110.38621166162082, -7.786121937850721 ], [ 110.386956058214921, -7.78619875529512 ] ], [ [ 110.376581239675545, -7.785885139819178 ], [ 110.37653679737808, -7.785352321028462 ], [ 110.376442670350343, -7.785796379031893 ], [ 110.376581239675545, -7.785885139819178 ] ], [ [ 110.37598104875471, -7.786978717256184 ], [ 110.376071661696841, -7.786583568212374 ], [ 110.374900783692254, -7.786378572660475 ], [ 110.374740275008747, -7.78648091126608 ], [ 110.375477405005071, -7.786928934239121 ], [ 110.37598104875471, -7.786978717256184 ] ], [ [ 110.376777675914511, -7.787974852914112 ], [ 110.376914851514286, -7.787670651995643 ], [ 110.376803521192969, -7.787439475328294 ], [ 110.376240894838318, -7.787929868826605 ], [ 110.376777675914511, -7.787974852914112 ] ], [ [ 110.375680289191777, -7.787973238247747 ], [ 110.375646317042339, -7.787851879948999 ], [ 110.375558706994113, -7.787938998494783 ], [ 110.375680289191777, -7.787973238247747 ] ], [ [ 110.380161553272629, -7.793452118279497 ], [ 110.380078017882894, -7.792591949192379 ], [ 110.380128724289065, -7.791973941864207 ], [ 110.380656200699462, -7.790729899303535 ], [ 110.380351694324375, -7.790593853530726 ], [ 110.37992608219254, -7.790627332717341 ], [ 110.37972065120907, -7.790512628501412 ], [ 110.379479823040839, -7.79042017920847 ], [ 110.378922339682561, -7.790729317268009 ], [ 110.378820887013049, -7.791798129537588 ], [ 110.379519074500081, -7.791905283414979 ], [ 110.379811001163802, -7.792112358390478 ], [ 110.379908501757228, -7.793405699593132 ], [ 110.380161553272629, -7.793452118279497 ] ], [ [ 110.382059691890007, -7.791663954772859 ], [ 110.382141023604731, -7.791022345701973 ], [ 110.381675369420094, -7.79082585269484 ], [ 110.381475302987937, -7.791074276093661 ], [ 110.381317058326786, -7.791612623429477 ], [ 110.382059691890007, -7.791663954772859 ] ], [ [ 110.382954211931548, -7.793953677407194 ], [ 110.382988186584299, -7.794075035289807 ], [ 110.383075796594341, -7.793987915212479 ], [ 110.382954211931548, -7.793953677407194 ], [ 110.382920237295835, -7.793832319522696 ], [ 110.382832627291066, -7.793919439568447 ], [ 110.382954211931548, -7.793953677407194 ] ] ] ] } },
{ "type": "Feature", "properties": { "OBJECTID": 95, "Id": 95, "gridcode": 3, "Shape_Leng": 44.000000001899998, "Shape_Area": 121.00000000999999 }, "geometry": { "type": "MultiPolygon", "coordinates": [ [ [ [ 110.382450578830444, -7.797236326724658 ], [ 110.382450724717643, -7.797136830483923 ], [ 110.382550489435062, -7.797136975965817 ], [ 110.382550343571424, -7.79723647220843 ], [ 110.382450578830444, -7.797236326724658 ] ] ] ] } },
{ "type": "Feature", "properties": { "OBJECTID": 96, "Id": 96, "gridcode": 3, "Shape_Leng": 117.96907072, "Shape_Area": 684.87890627700006 }, "geometry": { "type": "MultiPolygon", "coordinates": [ [ [ [ 110.38195160914735, -7.797335095184126 ], [ 110.381985220822187, -7.797269072384141 ], [ 110.382251195288532, -7.79713653944963 ], [ 110.382350960002114, -7.797136684978526 ], [ 110.382350814091353, -7.797236181217382 ], [ 110.382350668178674, -7.797335677455755 ], [ 110.38195160914735, -7.797335095184126 ] ] ] ] } },
{ "type": "Feature", "properties": { "OBJECTID": 97, "Id": 97, "gridcode": 4, "Shape_Leng": 41.501399253899997, "Shape_Area": 82.843515805600006 }, "geometry": { "type": "MultiPolygon", "coordinates": [ [ [ [ 110.38195160914735, -7.797335095184126 ], [ 110.381917278558703, -7.797456353428111 ], [ 110.381829923670907, -7.797368978266214 ], [ 110.38195160914735, -7.797335095184126 ] ] ] ] } },
{ "type": "Feature", "properties": { "OBJECTID": 98, "Id": 98, "gridcode": 3, "Shape_Leng": 512.62644037400003, "Shape_Area": 6080.8923815400003 }, "geometry": { "type": "MultiPolygon", "coordinates": [ [ [ [ 110.379955142556739, -7.798128147714235 ], [ 110.379502558532735, -7.798081436331016 ], [ 110.378061116964091, -7.797959816789726 ], [ 110.377860667939657, -7.797727089829182 ], [ 110.380013610203662, -7.797851474036645 ], [ 110.379955142556739, -7.798128147714235 ] ] ] ] } },
{ "type": "Feature", "properties": { "OBJECTID": 99, "Id": 99, "gridcode": 2, "Shape_Leng": 889.14784345500004, "Shape_Area": 33565.364529500002 }, "geometry": { "type": "MultiPolygon", "coordinates": [ [ [ [ 110.379955142556739, -7.798128147714235 ], [ 110.380013610203662, -7.797851474036645 ], [ 110.377860667939657, -7.797727089829182 ], [ 110.377741914814123, -7.797645060376126 ], [ 110.377621220769853, -7.797164913534999 ], [ 110.377762226141229, -7.79683147786692 ], [ 110.37900730499257, -7.796884949957334 ], [ 110.38055548811559, -7.796935069451435 ], [ 110.380495195133534, -7.798209268968538 ], [ 110.379955142556739, -7.798128147714235 ] ] ] ] } }
]
}
